DEALER_ID,DEALER_NAME,ADDRESS,CITY,STATE,ZIP
1,"Rogahn, Terry and Heller",95 Stoughton Park,Hampton,VA,84721
2,Ebert-Powlowski,4138 Dixon Terrace,San Rafael,CA,71917
3,Kunze-Mraz,71 Washington Park,Virginia Beach,VA,17647
4,Graham Inc,1381 Golden Leaf Trail,Fort Lauderdale,FL,93427
5,Hickle-Auer,64 Monterey Drive,Philadelphia,PA,58306
6,Torphy Inc,3641 Hallows Point,Irvine,CA,32982
7,Carter-Wolff,360 Fremont Place,Chicago,IL,93454
8,Rath Group,4 Michigan Street,Indianapolis,IN,99529
9,Crist and Sons,6 Riverside Trail,Dallas,TX,42928
10,Champlin-Kub,04 Eastlawn Avenue,Saint Paul,MN,64007
11,Luettgen-Schulist,2744 Tony Terrace,Richmond,VA,98013
12,"Sporer, Bruen and Walter",32372 Schlimgen Avenue,San Antonio,TX,77984
13,"Fadel, Wilderman and Blick",0729 Village Road,Houston,TX,10452
14,"Sanford, Hegmann and Harvey",12155 Reindahl Circle,Tampa,FL,12979
15,Hilll-Pagac,7660 Homewood Way,San Angelo,TX,44943
16,"Mertz, Corkery and Barton",5 Barby Hill,San Antonio,TX,86534
17,Zulauf Group,79269 Namekagon Center,Salt Lake City,UT,84082
18,Schumm Inc,85 Stone Corner Terrace,Fort Myers,FL,56806
19,Halvorson-Kessler,1509 Summer Ridge Terrace,Denver,CO,60548
20,Lemke and Sons,7 Dahle Way,Saint Petersburg,FL,49204
21,O'Reilly Group,5 Mesta Circle,San Antonio,TX,63751
22,Sporer-Little,42 Scott Alley,Portland,OR,70561
23,Hamill Inc,12849 Packers Point,Wichita,KS,44499
24,"Quigley, Zemlak and Ward",602 Thierer Point,Youngstown,OH,63524
25,Bednar Inc,22613 Steensland Hill,Charleston,WV,23243
26,West Group,95 Dawn Road,San Jose,CA,57456
27,Conroy and Sons,5 Stang Point,Austin,TX,40419
28,Schmitt Inc,475 Myrtle Point,Bryan,TX,98197
29,Prosacco-Stroman,64557 Duke Drive,Tampa,FL,25124
30,Kerluke and Sons,04807 Goodland Junction,Stockton,CA,89146
31,"Swift, Eichmann and Blanda",588 Kinsman Road,El Paso,TX,33262
32,"Graham, Hintz and Larkin",2009 Anniversary Plaza,Knoxville,TN,21885
33,Bahringer-Heidenreich,2 Oak Valley Trail,Saint Petersburg,FL,98924
34,"Schinner, Konopelski and Considine",3 Messerschmidt Pass,London,KY,15992
35,Kuphal-VonRueden,88687 Schlimgen Circle,New York City,NY,20571
36,Kuhic LLC,53 Badeau Junction,Santa Cruz,CA,80140
37,"McKenzie, Boyle and Goyette",79300 Daystar Place,Raleigh,NC,68855
38,"Leannon, Kuvalis and O'Conner",6777 Doe Crossing Park,New Haven,CT,95412
39,McGlynn LLC,99835 Shoshone Way,Tucson,AZ,43702
40,"VonRueden, Boyer and Stracke",3 Forest Run Junction,Indianapolis,IN,25864
41,"Bartoletti, Rau and Luettgen",92567 Bartillon Center,Washington,DC,47188
42,Boyer-Orn,5 Division Hill,El Paso,TX,83070
43,Adams-Padberg,22070 Dunning Park,Baton Rouge,LA,49556
44,"D'Amore, Green and Wintheiser",8386 Dexter Crossing,Albany,NY,93742
45,"Kovacek, Schulist and Dach",5180 Meadow Ridge Trail,Camden,NJ,95817
46,Pfeffer-Kshlerin,803 Anderson Parkway,Atlanta,GA,61611
47,Reynolds and Sons,460 Fair Oaks Avenue,Stockton,CA,75514
48,Mertz LLC,8050 Miller Parkway,Huntington,WV,74170
49,Kuhlman-Hahn,327 Donald Drive,San Diego,CA,34071
50,"Kessler, Runolfsson and O'Kon",29733 Mendota Plaza,Cincinnati,OH,70381
51,Tremblay-Mertz,1 Sycamore Drive,Charlotte,NC,16041
52,"Hand, Volkman and Lebsack",46 Forest Junction,Saint Paul,MN,76288
53,Yundt-Gutkowski,544 Cherokee Street,San Antonio,TX,78527
54,Leuschke-Frami,655 Lakewood Gardens Parkway,Newport News,VA,22373
55,"White, Daugherty and Harber",7 Ronald Regan Terrace,Indianapolis,IN,89208
56,"Doyle, Greenholt and Schumm",67244 Lindbergh Crossing,Seattle,WA,80879
57,"Langosh, Stracke and Hegmann",6 Luster Plaza,Bellevue,WA,94913
58,Nitzsche and Sons,68 Steensland Hill,Richmond,VA,14263
59,Wisoky-Towne,6816 Sachs Hill,Huntington,WV,37854
60,Barton-Hamill,76 Colorado Park,Washington,DC,16855
61,"Raynor, Koss and Vandervort",426 Helena Way,Lima,OH,39105
62,Breitenberg-Beahan,6199 Eliot Circle,Mesquite,TX,88045
63,Green and Sons,5186 Moose Crossing,Akron,OH,49791
64,Ondricka-Hilpert,4 5th Hill,Lubbock,TX,55107
65,Stamm-Cruickshank,99000 Hudson Point,Seattle,WA,89995
66,"Tillman, Jakubowski and Prosacco",15 Kipling Center,Lexington,KY,80203
67,Lynch and Sons,44714 Talisman Circle,Morgantown,WV,98201
68,"O'Connell, Stark and McKenzie",346 Anthes Junction,Charlotte,NC,25112
69,McKenzie-Kulas,974 Warbler Place,Phoenix,AZ,16773
70,Rippin-Schulist,081 Pierstorff Parkway,Tampa,FL,54160
71,Breitenberg-Walker,41 Gerald Plaza,Springfield,MA,44201
72,Considine and Sons,446 Larry Terrace,San Francisco,CA,55315
73,"Cormier, Schulist and Hansen",3010 Straubel Place,Woburn,MA,63989
74,Powlowski-Hane,41559 Bluestem Alley,Dallas,TX,43012
75,Wiza-Schaden,8939 Banding Trail,Dearborn,MI,65677
76,Franecki and Sons,82 Blackbird Pass,Milwaukee,WI,73658
77,Schuster Group,326 Buell Place,Columbia,MO,69363
78,"Wisoky, Jerde and Howell",6 Kedzie Trail,Madison,WI,59585
79,Hudson-Funk,56863 Veith Avenue,San Antonio,TX,37066
80,Hahn-Raynor,0759 Cordelia Terrace,Buffalo,NY,43435
81,"Cartwright, Jast and Volkman",9 Vernon Parkway,Portsmouth,NH,70815
82,Runolfsdottir-Jacobs,8 Maryland Point,Lynchburg,VA,96024
83,"Kuhlman, Dietrich and Langosh",34444 Lukken Hill,Tyler,TX,56466
84,Carroll-Towne,3011 Dwight Road,Sacramento,CA,43914
85,Rohan Inc,304 Butterfield Way,Tampa,FL,25656
86,Wisozk and Sons,6488 Coolidge Court,Hagerstown,MD,89553
87,Boyer-Schultz,9021 Rockefeller Circle,Jamaica,NY,57453
88,Konopelski-Weber,258 Jenna Center,Indianapolis,IN,76860
89,Balistreri-Donnelly,635 Bunker Hill Road,Pittsburgh,PA,32714
90,"Prohaska, Runolfsson and Dicki",2 Corben Circle,Philadelphia,PA,88986
91,Metz-Kassulke,3 Maple Way,Albuquerque,NM,23773
92,"Auer, Kshlerin and Leffler",25 Dovetail Alley,Inglewood,CA,39711
93,"Zulauf, Pacocha and Medhurst",755 Knutson Street,Huntsville,AL,10272
94,Hickle-Rohan,24768 American Ash Street,Boston,MA,33299
95,Hammes-Okuneva,2 Summerview Park,El Paso,TX,48816
96,"Hahn, Crist and Conroy",633 Summit Avenue,Honolulu,HI,82245
97,Walsh Group,8471 Hanson Junction,Bradenton,FL,57751
98,"Powlowski, Kub and Klein",94 Park Meadow Alley,Miami,FL,68663
99,"Hettinger, Stroman and McClure",6 Golf Course Alley,Davenport,IA,21809
100,Schinner LLC,153 Brentwood Way,Winter Haven,FL,64776
101,"Kris, Blanda and Sanford",84436 Ridgeway Way,Los Angeles,CA,19084
102,Crooks Inc,59518 Milwaukee Trail,Phoenix,AZ,56575
103,"Lebsack, Stehr and Mertz",4 Dennis Pass,Alexandria,VA,12505
104,Bergstrom-Hegmann,958 Annamark Crossing,South Bend,IN,61478
105,"Leannon, Borer and Baumbach",559 Warner Court,Milwaukee,WI,23924
106,Windler-Mueller,760 La Follette Crossing,Omaha,NE,53600
107,Kozey Group,9 Maple Lane,Reading,PA,39365
108,Von-Brakus,437 Mockingbird Avenue,Hollywood,FL,77844
109,Gusikowski-Towne,27331 Bartelt Court,Salt Lake City,UT,84911
110,Morar LLC,7 Hoepker Parkway,San Francisco,CA,50784
111,Harber-Johnson,40 Village Green Drive,Toledo,OH,50432
112,Renner LLC,1 Nova Crossing,Erie,PA,56706
113,Labadie Group,054 Oneill Trail,San Bernardino,CA,78772
114,Harvey Group,35595 Northland Point,Boise,ID,71502
115,Batz LLC,4048 Darwin Street,Rockford,IL,67438
116,"Abernathy, Boyle and Crona",31 Rigney Pass,Tulsa,OK,68415
117,Rice LLC,327 Clyde Gallagher Alley,Scottsdale,AZ,30977
118,Bartell and Sons,0262 Acker Plaza,Honolulu,HI,53121
119,McCullough LLC,270 Kipling Road,Rochester,NY,14365
120,Bartell-Hessel,1812 West Street,New Orleans,LA,13984
121,"Orn, Reilly and Ullrich",281 Canary Terrace,Houston,TX,16663
122,Grant and Sons,510 Pleasure Street,Cincinnati,OH,45829
123,"Dickinson, Ratke and O'Conner",70217 Glacier Hill Way,Oklahoma City,OK,92008
124,"Hirthe, Wisozk and Waters",56652 Shoshone Plaza,Cleveland,OH,34014
125,Sauer Group,36 High Crossing Place,Jacksonville,FL,85869
126,Hermiston-Kling,515 Nevada Point,Saint Petersburg,FL,84029
127,Beatty Inc,21 Hudson Drive,Jamaica,NY,78820
128,Gibson-Shields,5702 Hansons Terrace,Orlando,FL,98739
129,Howe-Lowe,488 Dryden Circle,Jacksonville,FL,86694
130,O'Hara LLC,53 Morrow Street,Clearwater,FL,86772
131,Schiller-Hickle,1 Warner Place,Houston,TX,83089
132,Toy Group,5 Moulton Place,Toledo,OH,19444
133,Wilderman and Sons,0849 Moulton Alley,Erie,PA,85158
134,Fahey-Donnelly,31 1st Center,Jefferson City,MO,58443
135,Bergnaum and Sons,45 Lindbergh Trail,Evanston,IL,56493
136,"Braun, Schinner and Hermiston",98 Dorton Circle,Spokane,WA,62666
137,Strosin and Sons,18970 Fallview Drive,Columbia,SC,51623
138,"Breitenberg, Monahan and Schumm",6282 Kings Street,Brooksville,FL,63695
139,Daniel-Casper,314 Mifflin Junction,Washington,DC,34873
140,Gutkowski-Kuhic,38 Monument Drive,Arlington,VA,23067
141,Boehm and Sons,479 Grasskamp Court,Mc Keesport,PA,75204
142,Goldner-Krajcik,10 Bartelt Pass,Philadelphia,PA,62359
143,Okuneva-Feil,63323 Tennyson Terrace,Washington,DC,34149
144,Leuschke-Weimann,17 Hermina Park,Bridgeport,CT,83496
145,Feest Group,4892 Ridgeview Alley,Charleston,WV,62925
146,Bauch-Schmeler,872 Bultman Court,Bloomington,IL,66854
147,"Conroy, Hagenes and Price",2 Loomis Point,Arlington,TX,70897
148,Botsford Inc,6273 Dahle Junction,Young America,MN,97295
149,Schuppe LLC,6 Chinook Road,Birmingham,AL,69225
150,Gusikowski and Sons,17 Burrows Center,Chicago,IL,82541
151,Goodwin Group,3613 8th Parkway,South Bend,IN,13796
152,Koss Group,0 Karstens Trail,Stockton,CA,67535
153,Ullrich LLC,9 Park Meadow Court,Sioux City,IA,33229
154,"Skiles, Ernser and White",46 Eggendart Pass,Austin,TX,32094
155,"Mitchell, Reilly and Schumm",45 Division Crossing,Washington,DC,25730
156,Purdy LLC,79669 Redwing Court,Sacramento,CA,32273
157,"Hahn, Boyle and Grimes",36167 La Follette Pass,Boca Raton,FL,22990
158,"Watsica, O'Kon and Lowe",36735 Shoshone Crossing,New York City,NY,66389
159,Robel Group,0162 Melvin Circle,Atlanta,GA,33332
160,Glover-Zboncak,1 Prairieview Drive,Irvine,CA,29772
161,Schmitt-Bruen,62306 Forest Dale Drive,San Jose,CA,97715
162,"Hansen, Larson and Fisher",610 South Place,Saint Cloud,MN,54769
163,Pouros-Abshire,12 Carberry Center,Macon,GA,19317
164,McDermott and Sons,98 Brown Junction,Olympia,WA,97673
165,Lebsack-Pacocha,3016 Bunker Hill Junction,Pittsburgh,PA,63259
166,"Goldner, Klocko and Wunsch",485 Burning Wood Road,Orlando,FL,49325
167,"Crona, Larkin and Abbott",995 Vidon Plaza,Fort Worth,TX,23031
168,"Daugherty, Mraz and Langworth",6748 Corscot Point,San Francisco,CA,94239
169,"Greenfelder, Trantow and Block",56 Truax Pass,Phoenix,AZ,61244
170,Wiza-Roberts,26 Cherokee Terrace,Pocatello,ID,49590
171,"Crooks, Cruickshank and Corwin",7 Carpenter Parkway,Chicago,IL,70631
172,"Bernier, Dickens and Fahey",17 Tomscot Circle,Worcester,MA,19971
173,Sipes and Sons,376 Alpine Street,Richmond,VA,87496
174,Turner-Trantow,9 Ridge Oak Circle,Saint Petersburg,FL,22232
175,Tremblay-Koss,6 Texas Drive,Lynchburg,VA,38083
176,Runte-Koch,5 International Way,Columbus,OH,14660
177,"Kessler, Konopelski and Schoen",180 Goodland Crossing,Columbus,OH,33580
178,"Larson, Willms and Abbott",3691 Derek Parkway,Seattle,WA,54091
179,Emard Group,85875 Butterfield Plaza,Farmington,MI,36464
180,Johns-Swift,00066 Sullivan Crossing,Charleston,SC,61297
181,Hayes Inc,2193 Parkside Avenue,Saint Louis,MO,64229
182,Runte-Kilback,36 Cascade Center,Charleston,WV,83572
183,Heller LLC,889 Straubel Terrace,Honolulu,HI,71782
184,"Feeney, Veum and Connelly",74361 Carey Alley,Lees Summit,MO,16341
185,Zieme-Kris,45010 Mariners Cove Crossing,Lafayette,LA,92522
186,Fadel Group,72 Raven Road,Springfield,IL,93933
187,Mann Inc,7139 Spohn Alley,Omaha,NE,57677
188,Collier Inc,53 Mesta Crossing,New York City,NY,96989
189,Howell Group,5757 Delaware Court,Springfield,MO,89706
190,"Dibbert, Crooks and Armstrong",2592 Lake View Alley,Pittsburgh,PA,40371
191,"Gusikowski, Becker and Swaniawski",36207 Pepper Wood Point,Wilmington,NC,24202
192,Toy Group,55 Maywood Street,Henderson,NV,93595
193,Reynolds-Hammes,4 Carey Parkway,Boca Raton,FL,58014
194,Rosenbaum-Tremblay,2555 Northwestern Hill,Houston,TX,14439
195,Connelly-Koss,499 Texas Way,Bellevue,WA,37992
196,Rempel LLC,6 Hoffman Point,El Paso,TX,51819
197,"Hauck, Treutel and Crona",5 Stuart Park,Arlington,VA,51605
198,"Fahey, Streich and Weimann",44 Golf Course Plaza,Houston,TX,17668
199,"Wolf, Walsh and Rosenbaum",003 Orin Way,Sioux City,IA,57321
200,"Smith, Hermiston and Volkman",89917 Crest Line Circle,Buffalo,NY,52072
201,"Walker, Rutherford and Kuvalis",54669 Russell Parkway,Raleigh,NC,56213
202,"Gerlach, Frami and Rice",0 Moulton Court,Tampa,FL,36329
203,Hodkiewicz Inc,58 West Junction,Boston,MA,43822
204,"Jacobs, Rolfson and Fisher",1045 Quincy Lane,Raleigh,NC,69568
205,Roberts LLC,261 Derek Street,New York City,NY,71614
206,Stokes LLC,765 Swallow Trail,Tallahassee,FL,56783
207,"Mueller, Abernathy and Altenwerth",0 Upham Drive,Richmond,VA,84106
208,Durgan-Glover,11762 Fordem Plaza,Washington,DC,41920
209,"Zemlak, Stehr and Langosh",57 Londonderry Crossing,Minneapolis,MN,33370
210,Conroy Group,926 Johnson Trail,Richmond,VA,60160
211,Brown and Sons,75 Trailsway Park,Jackson,MS,62635
212,Altenwerth Inc,95534 Warrior Point,Birmingham,AL,66316
213,Barton Group,1 Pond Avenue,Chattanooga,TN,97437
214,Mills LLC,59992 Evergreen Road,Cumming,GA,40886
215,Veum LLC,85179 Trailsway Drive,Detroit,MI,78634
216,"Bayer, D'Amore and Cole",732 Kipling Pass,Montgomery,AL,80073
217,Bruen-Bode,68 American Road,Dallas,TX,79652
218,O'Conner Inc,319 Spenser Hill,Washington,DC,95683
219,Kub-Runte,73757 Monterey Lane,Irving,TX,70061
220,Boehm-Mills,758 Sunfield Place,Jamaica,NY,67660
221,Sporer-Greenholt,2 Northview Point,Virginia Beach,VA,85272
222,Farrell Inc,4 Shelley Alley,Baltimore,MD,52297
223,"Schuster, Greenholt and Brown",2 Leroy Terrace,Charleston,SC,66587
224,Moore-Kunde,214 Fair Oaks Drive,Bradenton,FL,69090
225,"Reynolds, Dach and Abbott",91 Southridge Park,Bowie,MD,52166
226,Quigley-Baumbach,87111 Stephen Point,Richmond,VA,81291
227,Nicolas and Sons,014 Scofield Road,Milwaukee,WI,47041
228,"Schimmel, Reinger and Koss",59 Elgar Street,Washington,DC,28575
229,Jaskolski and Sons,41609 Riverside Court,North Little Rock,AR,34349
230,Gorczany-Langosh,8 Hollow Ridge Place,Waterbury,CT,86274
231,"Kris, Maggio and Spencer",6 Meadow Valley Crossing,Albuquerque,NM,71978
232,Fisher Group,9532 Granby Road,Fayetteville,NC,40657
233,Crooks-Renner,98 Bluestem Hill,Anniston,AL,33291
234,"Brekke, Smitham and Price",9 Fair Oaks Plaza,Fort Smith,AR,10719
235,Pfeffer-Senger,109 Pepper Wood Trail,Tallahassee,FL,61505
236,Towne-Willms,3056 Sunnyside Alley,Richmond,VA,61233
237,"Prohaska, Hand and Quitzon",81088 Fairview Court,El Paso,TX,62701
238,"Rice, Block and McGlynn",028 Brentwood Pass,Indianapolis,IN,96448
239,Kub Group,52 Bobwhite Plaza,San Diego,CA,20641
240,"Greenholt, Bode and Nader",4 Arrowood Crossing,Sioux Falls,SD,20511
241,Russel-Cole,254 Fair Oaks Pass,Madison,WI,73874
242,Crooks-Pfannerstill,57672 Lakeland Crossing,Cleveland,OH,50893
243,Murphy-Walker,95 Mayfield Road,Duluth,MN,87528
244,DuBuque-Howell,45775 Gale Alley,Honolulu,HI,52750
245,Herman-West,5336 Straubel Circle,Champaign,IL,41596
246,Kuhlman Group,368 David Road,San Jose,CA,95175
247,Bayer Group,423 Johnson Way,Sioux City,IA,20577
248,Waters-Romaguera,94 Forest Run Road,Reno,NV,59421
249,"Bins, Orn and Gislason",150 Cascade Alley,El Paso,TX,53669
250,"Hand, Trantow and Larkin",44 Corscot Place,Jacksonville,FL,56238
251,Cassin Inc,6542 Fuller Terrace,Trenton,NJ,29002
252,Johnson LLC,0370 John Wall Park,Katy,TX,87073
253,Heidenreich-Lockman,32690 Twin Pines Pass,Toledo,OH,73815
254,Medhurst Inc,8176 Blackbird Point,Flint,MI,17621
255,Yost Group,677 Fremont Circle,Shawnee Mission,KS,44362
256,Sipes and Sons,654 Brentwood Parkway,Columbus,OH,72044
257,"Hamill, Welch and Cummerata",8 International Junction,Miami,FL,92262
258,"Murazik, Turcotte and Hermann",179 Glendale Place,Houston,TX,60106
259,Feeney-Hills,049 Anzinger Street,Bronx,NY,69641
260,Renner-Lockman,78 Superior Alley,Lexington,KY,75838
261,Ledner-Pagac,8242 Scott Avenue,Glendale,AZ,32267
262,"Weber, Weber and Baumbach",1871 Anhalt Junction,Mobile,AL,75790
263,Bahringer LLC,6461 Oneill Place,Champaign,IL,88061
264,"McClure, Prosacco and Rolfson",6 Pleasure Way,Atlanta,GA,77639
265,Tremblay Group,085 Drewry Avenue,Las Vegas,NV,12455
266,Connelly Inc,7 Oxford Way,Milwaukee,WI,68523
267,Zieme-Hand,4 Northwestern Pass,Lynn,MA,70393
268,Homenick LLC,96 Mallory Court,North Las Vegas,NV,45387
269,"Wiza, Bruen and Koepp",42 Garrison Way,Seattle,WA,52448
270,Greenfelder-Leannon,78 Corben Plaza,Chicago,IL,87503
271,Gorczany-Bosco,9265 Bartelt Trail,Seattle,WA,53556
272,"Jenkins, Waelchi and Kub",7 American Center,Baton Rouge,LA,44794
273,Balistreri Inc,90 Fisk Circle,Tampa,FL,88370
274,Lubowitz-Parker,1571 Autumn Leaf Road,Lincoln,NE,78339
275,Mertz LLC,49336 Center Drive,Spring,TX,81866
276,"Stokes, Beahan and Hermiston",1 Hoffman Park,El Paso,TX,40887
277,Durgan-Bashirian,926 Cody Hill,Ann Arbor,MI,55018
278,Baumbach Inc,4 Cordelia Way,Kingsport,TN,61005
279,"Von, Effertz and Jones",57 Nova Pass,Fort Worth,TX,72962
280,"Torphy, Kohler and O'Conner",30 Sunnyside Center,Newark,NJ,37979
281,"Greenholt, Wisoky and Huel",24 Dwight Drive,New York City,NY,28733
282,Rohan-Kirlin,9 Texas Point,Fresno,CA,18927
283,Hintz-Becker,1 Bowman Alley,Sacramento,CA,82888
284,Connelly and Sons,1892 Schiller Junction,Richmond,VA,55542
285,"Zieme, McGlynn and O'Connell",9982 Springview Crossing,Miami,FL,40459
286,Crona-Stehr,513 Kings Road,Columbus,OH,20598
287,Purdy-Nienow,6216 Northview Plaza,Katy,TX,61683
288,Schamberger LLC,074 Barnett Circle,Danbury,CT,14670
289,Wilkinson-Braun,7 Columbus Way,Gulfport,MS,77660
290,Kuhn and Sons,6994 Cottonwood Point,Knoxville,TN,65558
291,"O'Connell, Kuhlman and Effertz",86 Esker Court,Dallas,TX,35816
292,Denesik Group,0 Mandrake Crossing,Orlando,FL,37983
293,Kuvalis LLC,7 Quincy Drive,Cincinnati,OH,74869
294,"Hoeger, Fritsch and Ritchie",6 Sugar Terrace,Rochester,NY,79053
295,Kovacek-Gusikowski,181 Nelson Lane,Peoria,IL,34009
296,Jenkins-Will,320 Stuart Alley,Miami,FL,77401
297,"Zboncak, Rutherford and Padberg",2081 Hayes Circle,Fresno,CA,34779
298,Medhurst-Roberts,54636 Hintze Trail,Dallas,TX,88523
299,Reichel Group,9 Spenser Center,San Bernardino,CA,17589
300,Kilback LLC,6532 Red Cloud Place,Baltimore,MD,78669
301,"Glover, Volkman and Jones",67 Hoffman Junction,Austin,TX,14916
302,Labadie-Becker,758 Eagan Avenue,Lexington,KY,53495
303,"Nikolaus, Mann and Schamberger",25 Kennedy Junction,Bridgeport,CT,27160
304,Emmerich LLC,0999 8th Circle,Kansas City,MO,73910
305,"O'Hara, Howell and Doyle",4707 Hanson Alley,San Antonio,TX,86605
306,Windler-Rempel,012 Sheridan Plaza,Toledo,OH,78730
307,Kling LLC,234 Hallows Center,Washington,DC,10382
308,Hodkiewicz Group,6 Huxley Parkway,Gatesville,TX,91497
309,Pfannerstill and Sons,47283 Emmet Place,Cape Coral,FL,64179
310,"Bashirian, Hane and Koelpin",61803 Ohio Center,Billings,MT,36994
311,Rohan-Crooks,638 Buhler Way,North Hollywood,CA,90619
312,Gaylord-Hand,030 Golf View Avenue,Athens,GA,39518
313,Heaney Group,67366 Sloan Drive,Dearborn,MI,82670
314,Conroy and Sons,42938 Logan Hill,New York City,NY,51942
315,"Feeney, Schumm and Buckridge",329 Bowman Trail,Van Nuys,CA,85653
316,"Fay, O'Kon and Gislason",71658 Golden Leaf Road,San Antonio,TX,42274
317,Hickle and Sons,1 Drewry Road,Reno,NV,92964
318,Cronin-Hand,9442 Heffernan Street,Nashville,TN,21543
319,Walsh and Sons,8 Anderson Lane,Memphis,TN,77718
320,Halvorson and Sons,1 Emmet Place,Memphis,TN,12213
321,Koss-Zieme,015 Eagan Court,Chattanooga,TN,36992
322,VonRueden-Russel,8 Chive Plaza,Chicago,IL,14831
323,Kiehn-Mitchell,189 Porter Terrace,Little Rock,AR,92807
324,Ruecker-Wisozk,4 Corry Court,Richmond,VA,25438
325,Bergstrom Group,088 Forster Point,Kingsport,TN,77459
326,"Dicki, Morar and Botsford",19018 Onsgard Lane,Hagerstown,MD,14449
327,Ritchie-Mraz,545 Brickson Park Hill,Pittsburgh,PA,75914
328,Wilderman-Gaylord,936 Knutson Trail,Oceanside,CA,14292
329,"Mayer, Miller and Zboncak",2 Oakridge Plaza,Minneapolis,MN,90259
330,"Walter, Schulist and Morissette",6 Valley Edge Court,Anchorage,AK,28668
331,"Wuckert, Paucek and Trantow",86426 Trailsway Drive,Naples,FL,34550
332,"Schoen, Ortiz and Mitchell",2717 Eggendart Drive,Portland,OR,39830
333,"Legros, Johnston and Wehner",49752 Dapin Junction,Washington,DC,77374
334,Lynch and Sons,56837 Packers Court,Oklahoma City,OK,63326
335,Herzog-Dicki,0 Onsgard Pass,Washington,DC,69407
336,Homenick Inc,61 Thierer Park,Oklahoma City,OK,38486
337,Farrell-Kirlin,55 Hauk Crossing,Las Vegas,NV,43993
338,Dach-Runolfsson,91030 Arkansas Pass,Saint Louis,MO,84183
339,Rath-Homenick,4 Di Loreto Road,Seattle,WA,96688
340,"Medhurst, Botsford and O'Keefe",202 Hanover Drive,Silver Spring,MD,80321
341,Schimmel-Kerluke,277 Algoma Park,Anchorage,AK,47452
342,Yundt-Marks,673 Dawn Avenue,East Saint Louis,IL,82483
343,Schulist-Bechtelar,47 High Crossing Plaza,Sacramento,CA,45158
344,Walsh-Rolfson,5287 Raven Lane,Bethesda,MD,95283
345,Reilly-Reichert,7550 Prentice Center,Shawnee Mission,KS,41563
346,"Cummings, Gutkowski and Klocko",3062 Browning Court,Minneapolis,MN,83483
347,Mitchell-Kirlin,4417 Warrior Junction,Washington,DC,28330
348,Ebert Inc,988 Vera Street,Houston,TX,76842
349,McKenzie-Considine,2 Jackson Center,Jamaica,NY,35562
350,Hessel-Ratke,3873 Independence Road,Terre Haute,IN,13889
351,Cartwright Group,86912 Maryland Circle,Minneapolis,MN,55303
352,"Lemke, Ernser and Weissnat",45 Southridge Trail,Indianapolis,IN,80564
353,"Lebsack, Ziemann and Walsh",32587 Tony Street,Falls Church,VA,54060
354,"Halvorson, Lubowitz and Considine",016 Jackson Street,Charleston,SC,93520
355,Parker LLC,1 Delladonna Plaza,Honolulu,HI,31679
356,"Marvin, Lubowitz and Brakus",4821 Northport Street,New York City,NY,33706
357,"Wisozk, Medhurst and Watsica",0 Gulseth Alley,Denver,CO,78485
358,Goyette-Parker,9430 Stoughton Junction,Fort Wayne,IN,85196
359,Von-Graham,0313 Becker Drive,Houston,TX,82420
360,"Kunze, Heidenreich and Pfannerstill",9 Doe Crossing Parkway,Amarillo,TX,95287
361,Douglas-Fahey,1 Anniversary Court,Daytona Beach,FL,53470
362,Waelchi LLC,8633 Glendale Place,El Paso,TX,38273
363,Lebsack Inc,7239 Montana Court,Las Vegas,NV,14204
364,Koch-Doyle,628 Stang Court,Hyattsville,MD,24352
365,Schmitt Group,9333 Petterle Avenue,Denton,TX,55711
366,"Hirthe, Morissette and Gislason",5306 Harbort Place,Pittsburgh,PA,46665
367,Luettgen and Sons,366 Hoepker Point,Saint Paul,MN,64227
368,"Fahey, Skiles and Hayes",29 Hayes Crossing,Dallas,TX,12210
369,Nienow-Lakin,582 Buhler Avenue,Philadelphia,PA,79555
370,"Gislason, Romaguera and Conn",12 5th Place,Dayton,OH,42457
371,Ward-Langworth,7 Forest Run Street,Springfield,IL,57919
372,Hickle Group,0762 Mifflin Alley,Jamaica,NY,97278
373,"Balistreri, Nader and Hane",2217 Alpine Plaza,Cleveland,OH,24831
374,Windler Group,4 Glendale Road,Akron,OH,71217
375,"Metz, Kunze and Hettinger",6 Killdeer Avenue,Las Vegas,NV,10661
376,Reichel LLC,89 La Follette Trail,Waterbury,CT,43914
377,"Crona, Franecki and Strosin",206 Coleman Place,Boca Raton,FL,70348
378,Jacobi-Dietrich,3 4th Alley,Reston,VA,57297
379,"Adams, Schowalter and Sipes",9 Red Cloud Plaza,Saint Joseph,MO,13946
380,Stoltenberg-Marvin,33 Heath Junction,Omaha,NE,98902
381,Jacobi-Pollich,744 Loomis Lane,San Bernardino,CA,47309
382,Romaguera-Daugherty,5 Cottonwood Trail,Bloomington,IN,23323
383,"Crooks, Reilly and Schaefer",3 Nevada Way,Waterbury,CT,48241
384,Morissette-Mitchell,288 Fordem Point,Houston,TX,21049
385,Jast-Spencer,47736 Westport Avenue,Pomona,CA,86828
386,Waters Group,289 Rusk Lane,Saint Louis,MO,81575
387,"Halvorson, Schuppe and Morar",180 Straubel Drive,Salt Lake City,UT,77616
388,"Harris, Schroeder and Prohaska",59 Warbler Point,Saint Augustine,FL,90878
389,"Wyman, Lemke and Nienow",4011 Elmside Terrace,Decatur,IL,13260
390,"Olson, Feeney and Renner",22586 Grover Plaza,Hampton,VA,60740
391,"Hills, Mayert and Marquardt",44 Brickson Park Plaza,Chesapeake,VA,45087
392,Hagenes-Nienow,8473 Melby Center,Newark,NJ,78254
393,"Beatty, Schimmel and Douglas",29284 Union Avenue,Fort Smith,AR,79614
394,Armstrong-Mills,8070 Nevada Hill,Houston,TX,56324
395,Wilderman-Glover,1627 Straubel Drive,Albuquerque,NM,22859
396,Beier Inc,5247 Mayfield Trail,Phoenix,AZ,88192
397,Kshlerin Group,07853 Oak Valley Place,Tucson,AZ,76727
398,Leuschke and Sons,95 Lakewood Gardens Pass,Charlotte,NC,57307
399,"Gutmann, Mante and Gutmann",737 Eagan Place,Jamaica,NY,58535
400,Strosin Inc,1 Muir Parkway,Huntington Beach,CA,26650
401,Crist-Waelchi,99592 Iowa Avenue,Ogden,UT,40670
402,Hagenes-Buckridge,82 Mendota Terrace,Irvine,CA,21670
403,Schowalter LLC,16 Dwight Pass,Wilkes Barre,PA,87087
404,Walsh-Willms,4 Artisan Pass,Evansville,IN,87842
405,Torphy LLC,92804 Maywood Drive,Colorado Springs,CO,35299
406,"Dickens, Kreiger and Brakus",707 Texas Terrace,San Diego,CA,78273
407,Konopelski-Ernser,5 Scoville Pass,San Antonio,TX,81471
408,"Schultz, Aufderhar and Gerlach",3 Macpherson Crossing,Chula Vista,CA,69011
409,Jerde LLC,8 Florence Lane,Washington,DC,99490
410,Thompson-Larkin,346 Kipling Court,Saint Louis,MO,20004
411,McLaughlin-Rosenbaum,992 Burning Wood Avenue,Winston Salem,NC,51496
412,Prosacco Group,988 Delaware Center,Bloomington,IN,10446
413,"Moore, Grimes and Steuber",0 Mariners Cove Place,Provo,UT,93943
414,"Krajcik, Harber and Stehr",6 Thackeray Street,Atlanta,GA,52298
415,"Jacobs, Collier and Pagac",2 Truax Plaza,Jacksonville,FL,35559
416,Reynolds LLC,704 Oneill Crossing,Baton Rouge,LA,38847
417,"Blanda, Tremblay and Pollich",48517 Kedzie Pass,Round Rock,TX,46176
418,"Blick, DuBuque and Bartoletti",73745 Moulton Parkway,Waco,TX,11291
419,Runte-Turcotte,4757 Almo Street,Jackson,MS,96280
420,Auer-Huel,8 Anderson Court,Tucson,AZ,95949
421,Kirlin Group,47 Everett Junction,Irving,TX,77383
422,Heidenreich-Schinner,4166 Banding Hill,Dayton,OH,28780
423,Yost-Koelpin,839 Brentwood Park,Sacramento,CA,97872
424,Padberg-Ferry,5711 Melvin Way,Philadelphia,PA,83581
425,Leffler and Sons,17 Hooker Avenue,North Little Rock,AR,38338
426,"Treutel, Purdy and Kohler",2 Forest Run Street,Huntington,WV,55599
427,Hagenes and Sons,428 Goodland Way,Lexington,KY,30032
428,Kuvalis-McKenzie,45 Mallory Circle,Honolulu,HI,82383
429,"Wolf, Abernathy and Oberbrunner",6 Bellgrove Junction,Chicago,IL,39646
430,Smith Inc,61847 Meadow Ridge Avenue,Baltimore,MD,83136
431,Schmeler-Adams,0380 Maple Crossing,Birmingham,AL,25863
432,"Balistreri, Schmidt and Stiedemann",3 Hayes Park,San Rafael,CA,95224
433,Reichert Group,83 4th Hill,Lexington,KY,47360
434,Wilkinson-Hessel,49 Anzinger Crossing,Saint Louis,MO,18585
435,Cummerata Inc,948 Graedel Hill,Decatur,IL,55695
436,Schowalter Inc,87479 American Junction,New Orleans,LA,30590
437,VonRueden and Sons,39 Clarendon Way,Akron,OH,19582
438,Runolfsdottir-Wisoky,0 Lotheville Circle,Mount Vernon,NY,28683
439,Torphy Group,95 Reindahl Place,Boston,MA,89809
440,Windler LLC,63 Marcy Point,Gainesville,FL,54600
441,Koch LLC,7 Anhalt Terrace,Honolulu,HI,46465
442,Crona Group,75908 Lakewood Gardens Parkway,Oxnard,CA,28892
443,Streich-Fritsch,3 Merry Circle,Trenton,NJ,94671
444,Murray-Keebler,3720 Bunting Way,Miami,FL,40861
445,Wolf LLC,7178 Westerfield Trail,Los Angeles,CA,71075
446,Lindgren Inc,87 Sunbrook Road,Fort Worth,TX,52627
447,Casper-Bode,71 Randy Road,Detroit,MI,48757
448,Grady-Little,08 Namekagon Circle,Cleveland,OH,64434
449,Buckridge-Kshlerin,732 Kim Junction,Orlando,FL,26826
450,Feil-Okuneva,07131 Cardinal Trail,Newark,NJ,11551
451,"Boyle, Weber and Cruickshank",2 Portage Pass,Tampa,FL,95693
452,"Schiller, Sawayn and Gottlieb",16 Summer Ridge Avenue,Waco,TX,20393
453,Ebert LLC,5 Rutledge Junction,Detroit,MI,34637
454,"O'Connell, Nienow and Simonis",7 Jenna Terrace,Indianapolis,IN,80754
455,Gaylord-Stokes,8 Fieldstone Lane,Fresno,CA,31233
456,Frami-Hilll,96383 Portage Junction,San Antonio,TX,85353
457,Vandervort and Sons,61147 6th Terrace,Huntington,WV,25934
458,Spinka-McGlynn,770 Forest Run Circle,Kansas City,MO,66123
459,Gerlach-Daniel,2265 Rowland Parkway,Wilmington,NC,23074
460,Gibson Inc,675 Ridge Oak Crossing,Atlanta,GA,64519
461,"Torphy, Reilly and Kertzmann",3423 Sunnyside Junction,El Paso,TX,49406
462,"Langosh, Volkman and Runolfsdottir",33 Farragut Crossing,San Diego,CA,75220
463,Kovacek-Casper,3380 Cottonwood Parkway,Detroit,MI,11204
464,Murphy-Barrows,66315 Moose Point,Orlando,FL,95927
465,Bogisich-Corwin,50157 Prentice Avenue,Dallas,TX,80083
466,Ritchie and Sons,223 Quincy Pass,Littleton,CO,84561
467,"Welch, Parker and Murray",304 Moland Center,Kansas City,MO,71139
468,"Sawayn, Waelchi and Gutkowski",7509 Brickson Park Place,San Antonio,TX,96082
469,"Schaden, Crona and Kohler",4229 Starling Court,Camden,NJ,79718
470,Toy-Jakubowski,63435 Veith Way,Mobile,AL,20663
471,Schowalter LLC,77 Mariners Cove Parkway,Arlington,TX,34954
472,Collins-Lockman,46 Thackeray Drive,Kansas City,MO,88924
473,Gibson-Robel,60285 Magdeline Road,Philadelphia,PA,27311
474,"Moore, Haag and Goldner",49 Ohio Road,High Point,NC,38541
475,"Dietrich, Frami and Gaylord",245 Del Sol Hill,Washington,DC,16785
476,Gaylord-Nicolas,5 Glacier Hill Center,Brooklyn,NY,10998
477,"Gusikowski, Green and Emmerich",9 Riverside Drive,Maple Plain,MN,28348
478,"Beahan, Stracke and Abernathy",434 Merrick Park,Wichita Falls,TX,92759
479,Morissette Inc,712 Laurel Center,Dallas,TX,22154
480,Stoltenberg Inc,8 Kipling Park,San Diego,CA,22706
481,"Hodkiewicz, Little and Von",967 Butternut Point,Raleigh,NC,64848
482,Pacocha-Wunsch,72704 Eliot Pass,Fort Lauderdale,FL,68517
483,Kutch LLC,5 Swallow Place,Waco,TX,94609
484,Dooley-Greenholt,91 Bunting Avenue,Orlando,FL,22447
485,Tillman Inc,82573 Warrior Lane,Baton Rouge,LA,52684
486,"Lowe, Gusikowski and Von",0197 Westport Parkway,Glendale,AZ,59780
487,Johnston LLC,928 Melody Road,Tulsa,OK,64911
488,Kuhlman-Stamm,392 Spenser Junction,Las Vegas,NV,94865
489,"Cruickshank, Schulist and Kemmer",5963 Southridge Place,Fort Wayne,IN,40189
490,"Paucek, McKenzie and Schmeler",67721 Schlimgen Avenue,Mountain View,CA,75014
491,Schumm-Bartoletti,97568 Dryden Circle,Fort Worth,TX,83929
492,"Torphy, Runolfsdottir and Becker",5695 Dovetail Court,Charlotte,NC,53633
493,"Farrell, Spinka and Yost",7005 Muir Parkway,Jackson,TN,78311
494,"Boyer, Prohaska and Eichmann",8 Sycamore Hill,Richmond,VA,26681
495,"Bartoletti, Treutel and Roberts",2 Emmet Avenue,Long Beach,CA,38570
496,"Grimes, Cummerata and Conroy",51918 Reindahl Circle,Erie,PA,64603
497,"Hamill, Wyman and Willms",46 Maywood Point,Chicago,IL,18753
498,"Moen, Dickens and Auer",8 Eggendart Crossing,Bakersfield,CA,53466
499,Corwin-Gerhold,9 Schmedeman Avenue,Amarillo,TX,45111
500,Fadel Inc,713 Truax Hill,Arlington,VA,35249
501,"Green, Hills and Schuster",7 Riverside Parkway,Crawfordsville,IN,38923
502,Dickens-Emard,4 Logan Junction,Erie,PA,27643
503,Hills-Leannon,69 Arrowood Parkway,Richmond,VA,57865
504,Ortiz Inc,1162 Rigney Pass,Stamford,CT,53387
505,Bernhard-Rogahn,680 Northfield Trail,Hollywood,FL,40244
506,Waters LLC,2 Caliangt Parkway,Las Vegas,NV,43427
507,Emard-Dickens,1 Kinsman Place,Houston,TX,60167
508,Brown-Marquardt,95 Gerald Drive,Baltimore,MD,37474
509,Wisozk-McDermott,804 Division Terrace,Springfield,IL,13596
510,"Von, Considine and Rohan",62537 Straubel Lane,Huntington,WV,60358
511,"Murphy, Torphy and Conn",31526 Buell Point,Corona,CA,64550
512,Crist-Mertz,033 Eliot Park,Oakland,CA,74133
513,Abshire LLC,3 Fairfield Terrace,Hartford,CT,42337
514,Murazik-Bartoletti,421 2nd Plaza,Louisville,KY,24586
515,"McCullough, Wiza and Bogan",27 Summer Ridge Way,Detroit,MI,34202
516,Gleichner-Walter,78406 Boyd Circle,San Antonio,TX,13572
517,"Rosenbaum, Lynch and Feest",7 Vera Pass,Modesto,CA,46896
518,Upton-Daugherty,47758 Dapin Avenue,Columbus,OH,93561
519,Williamson Inc,55 Pond Way,Billings,MT,71661
520,Weimann-Bosco,3083 Meadow Vale Center,Buffalo,NY,72433
521,"Mosciski, Sawayn and Abbott",1342 Monument Junction,High Point,NC,15979
522,Stamm-Tillman,16 Monica Alley,Memphis,TN,68286
523,"Mante, Champlin and Wilkinson",45954 Center Parkway,Seattle,WA,68340
524,Huel-Bartoletti,36743 Holmberg Plaza,Minneapolis,MN,86344
525,Wunsch LLC,7 Little Fleur Alley,Los Angeles,CA,33151
526,"Kautzer, Hand and Lakin",5542 Manley Terrace,Arlington,VA,40975
527,"Nader, Cummerata and Stehr",8 Becker Road,Atlanta,GA,91342
528,Flatley-Labadie,26488 Johnson Court,Phoenix,AZ,58614
529,Harber-Durgan,06037 Mcbride Park,Las Vegas,NV,28259
530,Bergnaum-Sawayn,84243 Butternut Trail,Pittsburgh,PA,45027
531,Kuphal-Stokes,15308 Charing Cross Parkway,Houston,TX,75375
532,Tillman-Botsford,7776 Mcguire Trail,Sacramento,CA,44610
533,"Hettinger, Dare and Lueilwitz",0 Sherman Way,Phoenix,AZ,50611
534,"Emmerich, Champlin and Olson",334 Harper Junction,Nashville,TN,26184
535,Walter Group,21325 3rd Terrace,Seattle,WA,28150
536,Satterfield and Sons,46870 Carioca Plaza,Kansas City,MO,83856
537,Koss-Flatley,13055 Chive Drive,Raleigh,NC,22532
538,Schmeler Inc,48970 Hagan Point,Dallas,TX,81784
539,Gleichner-Willms,27952 Pankratz Crossing,Saint Louis,MO,56149
540,"Wyman, Schroeder and Bartell",256 Pleasure Crossing,Boise,ID,32173
541,"Schowalter, Kulas and Bechtelar",20 Nobel Crossing,Jackson,MS,68276
542,Beahan Group,41 Continental Drive,Detroit,MI,17635
543,"Hauck, Little and Jenkins",2 Shelley Center,Albany,GA,36890
544,Rolfson-Schamberger,9 Glacier Hill Place,Phoenix,AZ,84603
545,"Kreiger, Maggio and Sporer",70879 Pawling Parkway,Phoenix,AZ,84611
546,"Sanford, Boehm and Schaden",074 Thackeray Way,Pittsburgh,PA,13351
547,Kemmer Inc,881 American Park,Saint Paul,MN,55311
548,Morar and Sons,1769 Troy Avenue,Albany,NY,32707
549,Lueilwitz-Kemmer,868 Cody Avenue,San Jose,CA,89843
550,"Ankunding, Schumm and Wuckert",1966 Calypso Alley,Washington,DC,87964
551,Hirthe-Flatley,74 Kedzie Junction,Sacramento,CA,58621
552,"Sanford, Hickle and Hammes",86 Luster Place,Dallas,TX,40238
553,"Wyman, Batz and Batz",75023 Charing Cross Court,Philadelphia,PA,74496
554,Stehr Inc,0501 Hayes Lane,Seattle,WA,38496
555,Bechtelar Inc,7614 Caliangt Court,West Hartford,CT,73117
556,Harris-Bradtke,669 6th Parkway,Orlando,FL,89584
557,Labadie-Kozey,58 Moose Avenue,Fort Myers,FL,57415
558,"Altenwerth, Baumbach and Christiansen",2626 5th Lane,Houston,TX,17477
559,Cole and Sons,56 Commercial Lane,Chicago,IL,99938
560,"Batz, Dickinson and Schmidt",14488 Tennessee Parkway,Dallas,TX,90917
561,VonRueden and Sons,081 Ruskin Parkway,Brooklyn,NY,76629
562,"Cremin, Mayert and McClure",46 Sullivan Hill,Vancouver,WA,23800
563,Champlin-Greenholt,909 Independence Plaza,Toledo,OH,15672
564,"Graham, Lang and Terry",872 Lunder Street,Austin,TX,42498
565,Kassulke LLC,60 Maryland Avenue,Los Angeles,CA,13033
566,"Lubowitz, Watsica and Heaney",30084 Carioca Circle,Ocala,FL,28173
567,Langworth Inc,892 American Ash Circle,Bowie,MD,69042
568,Gislason LLC,67 Utah Avenue,Stamford,CT,74662
569,"Hackett, Legros and Lowe",74500 Kipling Lane,White Plains,NY,43552
570,"McGlynn, Schulist and D'Amore",81142 Troy Way,Corpus Christi,TX,81621
571,Keebler Group,2732 Thompson Way,New Brunswick,NJ,14862
572,Runte and Sons,5763 Algoma Parkway,Sioux Falls,SD,55297
573,"Nikolaus, Howell and Graham",9 Farwell Junction,Wichita,KS,20438
574,"Harvey, Conroy and White",60447 Namekagon Center,Indianapolis,IN,91251
575,Daniel Inc,39 Crownhardt Street,Glendale,AZ,26152
576,"Powlowski, Champlin and Mertz",4 Monterey Junction,Las Vegas,NV,11781
577,Gulgowski-Rogahn,32582 Sachs Park,Youngstown,OH,51878
578,"O'Reilly, Marvin and Heaney",34 Ridgeview Drive,Houston,TX,95540
579,Breitenberg-Wyman,85491 Sutteridge Street,Garden Grove,CA,77329
580,Harvey Group,26787 Beilfuss Alley,Los Angeles,CA,81203
581,Stiedemann Group,88 Amoth Parkway,Irvine,CA,61073
582,"Heidenreich, Johnston and Beatty",838 Everett Lane,Detroit,MI,34960
583,Bernhard-Lang,84 Bluestem Lane,Pensacola,FL,51840
584,Kuhn and Sons,349 1st Hill,Sacramento,CA,78309
585,Wintheiser Inc,57270 Clemons Road,Knoxville,TN,22747
586,Nader-Lang,448 Mayfield Junction,El Paso,TX,57995
587,"Hodkiewicz, Weissnat and Baumbach",6 Arrowood Center,Muskegon,MI,45448
588,Veum and Sons,8 Buhler Junction,Saint Louis,MO,22434
589,Kuhlman-Thompson,36 Westend Park,Plano,TX,92910
590,Bergnaum and Sons,1129 Ludington Plaza,Trenton,NJ,77100
591,Hauck LLC,8 Eliot Park,Milwaukee,WI,74824
592,Willms and Sons,0120 Iowa Way,Denver,CO,50634
593,Corwin-DuBuque,4 Westerfield Junction,Baton Rouge,LA,44067
594,"Roob, Kiehn and Cummerata",0 Center Terrace,Columbus,OH,42132
595,Moore LLC,5 Sycamore Center,Phoenix,AZ,47342
596,"Lueilwitz, Kunze and Pacocha",8 Vernon Crossing,Cleveland,OH,92981
597,Goldner-Blick,90404 Hallows Place,San Jose,CA,27400
598,Keeling LLC,4006 Colorado Plaza,Boulder,CO,21215
599,"Funk, Dickens and Hahn",004 Clyde Gallagher Crossing,Van Nuys,CA,50031
600,"Romaguera, Wisozk and Stamm",7 Spohn Lane,San Antonio,TX,45155
601,Fadel-Tillman,8987 Starling Drive,Columbus,OH,64321
602,Murray-Turner,0 Warrior Terrace,Las Vegas,NV,15479
603,"Leannon, Kunze and Cummings",05 Macpherson Parkway,Hartford,CT,55983
604,Hilpert LLC,82 5th Way,Apache Junction,AZ,23591
605,"Jones, Witting and Rath",717 Homewood Circle,Springfield,MA,13285
606,Roberts Inc,96 Clarendon Way,Dallas,TX,47633
607,Lang and Sons,0 Mallard Center,Jamaica,NY,24018
608,"Streich, Ritchie and Schroeder",54 Lakeland Way,Erie,PA,47548
609,Mills-Keebler,616 Roth Crossing,El Paso,TX,18008
610,"Boyer, Gulgowski and Watsica",9366 Ilene Circle,Reston,VA,14468
611,Beer-Steuber,26737 Susan Avenue,Brooklyn,NY,49598
612,Schultz-Heidenreich,0 Dorton Drive,Miami,FL,84809
613,"Lynch, Carroll and Lynch",982 Vernon Way,Houston,TX,48390
614,Prosacco Group,8 Lien Crossing,Washington,DC,30569
615,Langworth Group,3 Surrey Avenue,Colorado Springs,CO,88250
616,Feest Inc,4586 Spaight Pass,Philadelphia,PA,70911
617,Konopelski Group,70 Talmadge Avenue,Omaha,NE,72643
618,White LLC,6350 Manitowish Trail,Herndon,VA,80266
619,Baumbach-Hilll,041 Veith Pass,San Jose,CA,66137
620,Nikolaus LLC,45458 Continental Alley,Gilbert,AZ,39793
621,Ernser-Dibbert,9081 La Follette Point,Austin,TX,36828
622,Ziemann-Bartoletti,633 Laurel Parkway,New Orleans,LA,22373
623,Ruecker-Roob,00 Express Trail,Raleigh,NC,39963
624,"Stroman, Breitenberg and Boyer",2 Dwight Lane,Green Bay,WI,20163
625,Johns-Schaden,73117 Artisan Avenue,Louisville,KY,84890
626,Aufderhar-Erdman,1134 Pawling Avenue,Seattle,WA,91543
627,"Veum, Pagac and Pfannerstill",3723 Dottie Circle,Shreveport,LA,98351
628,Schaefer Inc,7 Blaine Street,Columbia,SC,84111
629,Thiel Group,54490 Homewood Road,Detroit,MI,65886
630,Rodriguez-Marvin,561 Dovetail Crossing,Phoenix,AZ,92557
631,"Mann, Dickinson and Gusikowski",9008 Columbus Avenue,Rochester,NY,88356
632,"Keebler, Daugherty and Schmeler",0 Holy Cross Parkway,Lancaster,PA,86801
633,Bogan Inc,505 Clemons Point,Washington,DC,96777
634,"Tillman, Cronin and Witting",55462 Macpherson Point,Baltimore,MD,99541
635,"Walker, Mosciski and Ryan",27 Dorton Avenue,Memphis,TN,30457
636,Von Inc,87 Hoepker Circle,Manchester,NH,41705
637,"Jerde, Stanton and Brekke",29 Mifflin Alley,Knoxville,TN,68750
638,Orn Inc,06 Garrison Terrace,Washington,DC,33158
639,Daugherty and Sons,845 Goodland Parkway,Lafayette,IN,94292
640,"Lesch, Cremin and Collins",423 Thierer Crossing,New York City,NY,13932
641,Kiehn-Haag,62058 Dakota Avenue,El Paso,TX,97936
642,Pfannerstill Group,1 Killdeer Avenue,Duluth,MN,31983
643,Denesik-Bode,12 Parkside Terrace,Dayton,OH,55191
644,"Schmeler, Gleichner and White",32 Crest Line Center,Milwaukee,WI,84428
645,Considine Group,722 7th Terrace,Columbus,MS,80222
646,"Cole, Dooley and Mosciski",4 Bobwhite Circle,Charlotte,NC,38464
647,Erdman Inc,8 Express Terrace,Harrisburg,PA,89256
648,"O'Reilly, Mann and Grant",7 Sunbrook Avenue,Washington,DC,58139
649,Boyle-Stoltenberg,67002 Kipling Plaza,Saint Louis,MO,12193
650,"Ziemann, Kozey and Keebler",9 Bowman Hill,Honolulu,HI,48162
651,"Koepp, Schneider and Swift",3 Kropf Pass,Winston Salem,NC,33280
652,"Lindgren, Morissette and Schimmel",3384 Hooker Trail,Carson City,NV,27939
653,Hand Group,05 Burning Wood Crossing,Danbury,CT,81308
654,"Prosacco, Murazik and Kuhic",44 Loftsgordon Terrace,Richmond,CA,37369
655,Tillman Group,905 Drewry Center,Des Moines,IA,41226
656,Gulgowski-McGlynn,91383 Hansons Way,Johnstown,PA,66661
657,Carter-Daniel,79488 Eagan Road,New York City,NY,13355
658,Roberts-Marks,8 Dennis Junction,Huntington,WV,78752
659,Ondricka-Hayes,39 Thompson Avenue,Bethesda,MD,89921
660,Bernier-Spencer,98 Lotheville Park,Little Rock,AR,70529
661,Rodriguez and Sons,33690 Farwell Terrace,Brooklyn,NY,74246
662,McKenzie-Crona,63173 Waubesa Parkway,Pasadena,CA,41011
663,Weissnat-Douglas,180 Cardinal Place,New Haven,CT,34290
664,Schuster Group,91664 Glendale Alley,Alhambra,CA,94887
665,Wolf and Sons,389 Brickson Park Lane,Atlanta,GA,32641
666,Heller Group,93 Sachtjen Hill,Dayton,OH,11231
667,Funk Inc,40806 Waubesa Hill,Alpharetta,GA,15487
668,Aufderhar Group,8442 Porter Crossing,Louisville,KY,57154
669,Zieme LLC,377 Randy Hill,Shreveport,LA,39552
670,Price LLC,2 Lyons Way,Sacramento,CA,52214
671,Crooks-Harris,09184 Brown Avenue,Cumming,GA,18650
672,Torphy Group,96 Autumn Leaf Circle,Monticello,MN,44969
673,"Walsh, Schaden and Kreiger",292 Dottie Point,Harrisburg,PA,27528
674,Beier-Orn,82598 Annamark Drive,Reston,VA,80952
675,Torp Group,9848 Dayton Street,Washington,DC,75817
676,Cole-Dickens,48510 Judy Alley,Wilmington,DE,99035
677,Davis and Sons,80 Atwood Parkway,Elizabeth,NJ,21875
678,Carter and Sons,4606 Birchwood Plaza,San Luis Obispo,CA,27791
679,Paucek Group,3 Pepper Wood Hill,Fort Wayne,IN,90230
680,"Boehm, Fahey and Klein",1 Merry Drive,Charleston,WV,87731
681,Kerluke LLC,830 Petterle Avenue,Tulsa,OK,86100
682,"Hane, Kunze and Block",29826 Del Sol Hill,Las Vegas,NV,43731
683,Pfeffer LLC,78757 Crownhardt Park,Sioux Falls,SD,33756
684,Greenfelder and Sons,39102 Dakota Pass,Fort Worth,TX,33571
685,"Botsford, Dare and Crist",38547 Farmco Court,San Jose,CA,25027
686,Runolfsson-Christiansen,182 Rowland Trail,Cincinnati,OH,39936
687,Hills and Sons,97 Maple Wood Plaza,Kansas City,KS,68744
688,DuBuque Inc,7709 Hermina Circle,Marietta,GA,32437
689,"Huel, Ondricka and Gutmann",24208 Loomis Junction,Charleston,WV,59763
690,Nader-Wehner,961 Carey Street,Clearwater,FL,84949
691,Renner Group,7367 Barby Terrace,Memphis,TN,93671
692,Hettinger-Bergstrom,408 Rigney Trail,Modesto,CA,31723
693,Heidenreich-Tromp,741 Northport Center,El Paso,TX,94116
694,Kuhn-Hayes,9409 Fairfield Plaza,Indianapolis,IN,51087
695,"Lind, Tromp and Feil",75483 Barby Court,Pinellas Park,FL,55027
696,Parker-Wolf,51327 Kensington Terrace,Sacramento,CA,47417
697,Nader Group,248 Reinke Terrace,Saint Louis,MO,90867
698,Kuhic Inc,935 Browning Hill,Austin,TX,44594
699,Kertzmann-Franecki,247 Onsgard Court,Modesto,CA,96042
700,Howell and Sons,42 Surrey Center,Arlington,VA,65851
701,Witting-Bruen,6404 Namekagon Parkway,Fort Worth,TX,39545
702,Hilll-Lowe,4 Mockingbird Center,Washington,DC,53863
703,Bartell-Trantow,54 Eagan Place,Huntsville,AL,92886
704,"Wyman, Gleason and Kirlin",4917 Prairie Rose Terrace,Tucson,AZ,31060
705,Huel-Wuckert,73 Union Hill,Toledo,OH,46255
706,"Anderson, Block and Larkin",4 Merrick Plaza,Tucson,AZ,62832
707,"Herzog, Turner and Emard",146 Bowman Park,New York City,NY,75687
708,"Daugherty, Green and Cassin",7108 Elgar Alley,San Francisco,CA,45970
709,O'Kon Group,0 Kinsman Lane,Baton Rouge,LA,87675
710,Gusikowski LLC,1559 Alpine Way,Detroit,MI,59883
711,"Schimmel, Schmidt and Weber",0 Merchant Point,Bakersfield,CA,30459
712,"Mann, O'Conner and Lesch",055 Harper Court,San Diego,CA,72936
713,Kshlerin-Lowe,4258 Anthes Trail,Houston,TX,25796
714,Swift-Schamberger,22 Kropf Alley,Houston,TX,20071
715,"Howell, Mante and Denesik",895 Cambridge Point,Winston Salem,NC,96433
716,Grant-Ferry,6837 Northfield Center,Reston,VA,51885
717,"Cruickshank, Fisher and Koelpin",1 Loomis Pass,Akron,OH,27128
718,Corwin-Boyer,851 Birchwood Terrace,Dallas,TX,35172
719,Considine-Kemmer,8351 Hallows Street,Baltimore,MD,65673
720,Kozey LLC,79527 Orin Trail,Lake Charles,LA,75096
721,Ankunding Group,98260 Ridgeview Park,Tucson,AZ,11866
722,Fisher Inc,3 International Place,Woburn,MA,12652
723,Vandervort-Cartwright,79222 Mayfield Pass,Pittsburgh,PA,20304
724,"Howe, Ortiz and Bergstrom",6 Hoepker Road,Wichita,KS,37276
725,Sawayn and Sons,86592 Declaration Junction,Erie,PA,64396
726,"Lemke, Rodriguez and Ullrich",39 Harper Street,Roanoke,VA,35607
727,Gottlieb and Sons,6914 Mockingbird Place,Des Moines,IA,85892
728,Senger-Bailey,536 Almo Crossing,Kansas City,MO,40791
729,Hane-Witting,3282 Butterfield Point,Jamaica,NY,79210
730,"Dicki, Brown and Russel",98106 Miller Parkway,Muncie,IN,23530
731,"Pfeffer, Morissette and Wehner",34 Messerschmidt Trail,Lakeland,FL,55167
732,"Rogahn, Johns and Roberts",66 Upham Pass,Tucson,AZ,36733
733,Hansen and Sons,48423 Badeau Lane,Honolulu,HI,40758
734,Wuckert-Gerlach,42 Farmco Circle,Tulsa,OK,96465
735,Russel-Kuhlman,3188 Heffernan Circle,Huntsville,AL,86003
736,Lang-Ernser,8 Lakeland Plaza,Peoria,IL,92018
737,"Waters, White and Pagac",84077 Mayfield Court,San Francisco,CA,92323
738,White Inc,5 Glendale Junction,Killeen,TX,78957
739,Bode and Sons,3 Declaration Court,Santa Fe,NM,54779
740,"Sipes, Bechtelar and Corwin",9 Dorton Street,Carson City,NV,43297
741,Cormier and Sons,62746 Rutledge Trail,Chicago,IL,95716
742,"Ondricka, Pollich and Lebsack",57 Caliangt Parkway,Springfield,IL,36951
743,Dicki-Windler,9 Reinke Point,Chandler,AZ,17233
744,Price-Cassin,6 Old Shore Pass,Des Moines,IA,41621
745,Bergnaum-Ankunding,26 Arrowood Junction,Fort Wayne,IN,98389
746,Howe Group,580 Warner Terrace,Kansas City,MO,48775
747,"Rosenbaum, Reinger and Thompson",087 Cordelia Circle,Denver,CO,25234
748,"Ebert, Heller and Hilll",955 Mallory Avenue,Saint Petersburg,FL,20247
749,Denesik-Quigley,61 Vernon Terrace,Amarillo,TX,18833
750,Auer-Schimmel,8533 Helena Park,Huntsville,AL,95120
751,Bradtke Group,11723 Oxford Pass,Englewood,CO,16906
752,"Yost, Grant and Kris",06 Kropf Way,Melbourne,FL,57674
753,Runolfsson LLC,95 Commercial Place,Orlando,FL,76406
754,"Harber, McDermott and Donnelly",52 La Follette Plaza,Jackson,MS,44801
755,Bashirian-Greenholt,5350 Pankratz Terrace,Montgomery,AL,35906
756,Harris-Koch,28727 Shopko Junction,Durham,NC,54861
757,Connelly Group,0239 Sommers Circle,Salt Lake City,UT,88399
758,Kuhic Inc,63654 Knutson Center,New Orleans,LA,24312
759,"Turcotte, Kreiger and Hills",3170 Mcbride Plaza,Baltimore,MD,23606
760,"Thiel, Lueilwitz and Goodwin",78412 Northview Court,Fresno,CA,13597
761,"Wilderman, Emmerich and Farrell",6 Ohio Road,San Antonio,TX,69528
762,Nikolaus Inc,6 Daystar Plaza,Bakersfield,CA,72392
763,"Berge, DuBuque and Bayer",682 Spaight Pass,Memphis,TN,34164
764,Strosin-Rath,3466 John Wall Crossing,Anaheim,CA,98915
765,Swaniawski-Murray,9388 Carey Trail,Boston,MA,51144
766,Mraz Group,09216 Kenwood Drive,Washington,DC,53551
767,Abshire-Schneider,915 Elgar Parkway,Omaha,NE,37572
768,Schmeler and Sons,27 Express Circle,Wilmington,DE,16045
769,"Ortiz, Wolf and Gorczany",0 Eastlawn Pass,Milwaukee,WI,69592
770,"Rodriguez, Will and Purdy",44834 Dahle Way,Milwaukee,WI,81215
771,"Ortiz, Volkman and Bosco",1 Sommers Plaza,Sarasota,FL,35078
772,Reichert and Sons,28912 Macpherson Terrace,Brooklyn,NY,36799
773,Deckow LLC,11897 Center Parkway,Indianapolis,IN,28846
774,Purdy-Bergstrom,15091 Carey Trail,Evansville,IN,93700
775,Ferry-Schuster,18522 Coleman Way,Huntington Beach,CA,91173
776,Orn-Williamson,446 5th Parkway,Louisville,KY,50362
777,"Pollich, Stehr and Emard",2 Jay Terrace,New Bedford,MA,59428
778,Morar-Monahan,06 Arapahoe Park,Waterbury,CT,22688
779,Powlowski-Jacobi,9 Sachtjen Circle,Fort Myers,FL,41133
780,Mohr Inc,218 Tomscot Road,Lexington,KY,31831
781,"Schmeler, Pfannerstill and Strosin",24027 Huxley Point,Cedar Rapids,IA,73035
782,Erdman and Sons,75668 Northview Plaza,Rochester,NY,62536
783,"Jenkins, Klein and Mraz",5 Hansons Trail,Murfreesboro,TN,20973
784,Labadie-Daugherty,3687 Mcguire Street,Terre Haute,IN,69293
785,"Johns, Wilderman and Johnson",860 Pepper Wood Parkway,Rockville,MD,58680
786,Boyle Inc,025 Mosinee Plaza,Newark,DE,28221
787,Shanahan Group,9 Clemons Court,Portsmouth,VA,65957
788,McDermott and Sons,3 Chinook Street,Denton,TX,25604
789,"Bruen, Stiedemann and Medhurst",339 Armistice Street,San Jose,CA,42123
790,"Pacocha, Larson and Boyle",04 Truax Crossing,Sacramento,CA,97762
791,Rogahn LLC,8595 Trailsway Trail,Lynchburg,VA,84048
792,Lang-O'Keefe,06006 Crowley Road,Denver,CO,14110
793,"Emmerich, Will and Wiegand",55517 Redwing Street,Odessa,TX,12595
794,Crist Group,2998 Prairie Rose Alley,Roanoke,VA,10953
795,DuBuque-Hand,09 Eagan Avenue,Jamaica,NY,13992
796,Satterfield-Schoen,277 Dapin Hill,Pittsburgh,PA,96771
797,Heidenreich and Sons,3 Jenna Lane,Rochester,NY,53629
798,McCullough-Kassulke,07654 High Crossing Way,Phoenix,AZ,46279
799,Herman-Durgan,60618 Moose Circle,Vancouver,WA,95338
800,Satterfield LLC,69192 Eastwood Road,Lubbock,TX,49096
801,"Williamson, Gislason and Conn",85 Village Green Parkway,Norman,OK,85763
802,Lubowitz-Kessler,59731 Rusk Drive,Buffalo,NY,92544
803,"Hartmann, McClure and Welch",4682 7th Hill,Evansville,IN,99453
804,"Kessler, Ebert and Rohan",6478 Monument Road,Las Vegas,NV,88468
805,Fahey-Dooley,8322 Kropf Way,San Luis Obispo,CA,34966
806,Boehm Inc,09261 Harper Pass,Mobile,AL,98754
807,"Williamson, Bergnaum and Maggio",60 Miller Drive,Los Angeles,CA,91190
808,Leffler-Kuvalis,68825 Stoughton Pass,Washington,DC,58915
809,"Gusikowski, Kshlerin and Fadel",89 Hermina Way,Rockford,IL,63140
810,Marks-Bailey,3932 Haas Park,Boston,MA,43738
811,Hilll-Gleichner,456 5th Park,Lawrenceville,GA,76877
812,Moore and Sons,17 Moland Crossing,San Francisco,CA,30233
813,"Mraz, Rice and Heller",2 Bashford Junction,Charlotte,NC,88266
814,Rutherford Group,4613 Lawn Center,Nashville,TN,50558
815,Rath-Greenholt,80587 Almo Street,Los Angeles,CA,95837
816,Padberg-Schiller,190 Becker Pass,Buffalo,NY,28796
817,Hegmann-Muller,71 Mockingbird Terrace,Charleston,WV,67138
818,Graham-Lehner,0882 Melvin Terrace,Washington,DC,33982
819,"Bayer, Kertzmann and Kemmer",9934 Loeprich Point,Alpharetta,GA,97337
820,Reynolds-Tillman,29 Pennsylvania Road,Seattle,WA,37066
821,Keeling-Weissnat,1 Moose Pass,Fresno,CA,67810
822,Harris-Corwin,82255 Buell Crossing,Tulsa,OK,33857
823,"Cormier, Schaden and Smith",1 Buhler Place,Erie,PA,24066
824,"Casper, Connelly and Green",5 Old Gate Trail,Champaign,IL,40062
825,Shanahan and Sons,9303 Warbler Place,Buffalo,NY,31904
826,Wolf Group,504 Moose Way,Sacramento,CA,90790
827,"Lynch, Klein and Volkman",66257 Troy Junction,Washington,DC,91444
828,"Homenick, Kertzmann and Cormier",48805 Fairview Park,San Antonio,TX,52328
829,Quigley-Ritchie,3 Susan Crossing,Santa Cruz,CA,91384
830,Harvey LLC,96626 Sugar Pass,Stockton,CA,66639
831,"Metz, Mann and Green",89 Lien Drive,Washington,DC,97810
832,Stokes-Powlowski,28 Rockefeller Trail,Saint Petersburg,FL,63537
833,Medhurst-Walter,20 Nancy Pass,Boston,MA,72393
834,Hane LLC,42 Meadow Valley Pass,Corpus Christi,TX,12557
835,"Littel, Gutkowski and Hermiston",0351 Petterle Parkway,Tucson,AZ,48124
836,Dare-Stracke,7 Leroy Trail,Atlanta,GA,51567
837,Lockman-Okuneva,49 Butterfield Trail,Bethesda,MD,57963
838,"Olson, Hintz and Torphy",01 Badeau Plaza,Phoenix,AZ,67937
839,Marvin-Davis,54 Dunning Crossing,Fort Wayne,IN,62176
840,Collier LLC,03 Burning Wood Pass,Brooklyn,NY,82283
841,Bosco Inc,08508 Bellgrove Road,Detroit,MI,13060
842,Kautzer Group,619 3rd Plaza,New York City,NY,93477
843,"Treutel, Rice and Hickle",523 Goodland Way,Springfield,VA,99891
844,Medhurst-Armstrong,1806 Randy Point,Las Vegas,NV,53663
845,Swift and Sons,14647 Fair Oaks Plaza,Norwalk,CT,68503
846,"Hermann, Wisozk and Boyle",087 Division Trail,Bethesda,MD,84417
847,Gleichner-Bartell,5663 Moulton Point,Juneau,AK,30504
848,"Mayer, Parker and Treutel",999 Sutherland Street,Fort Lauderdale,FL,76821
849,"Nolan, Strosin and VonRueden",0 Mcguire Circle,Tulsa,OK,40109
850,Lesch and Sons,9 Grasskamp Crossing,Houston,TX,74661
851,Metz-Donnelly,0701 Tennessee Lane,San Jose,CA,18476
852,King and Sons,6 Clyde Gallagher Drive,Syracuse,NY,26529
853,Raynor-Langworth,9201 Clove Pass,Roanoke,VA,47403
854,"Legros, Parisian and Lang",45285 Northport Park,El Paso,TX,12074
855,"Funk, Gottlieb and Gottlieb",5 Orin Circle,Washington,DC,99484
856,Walker LLC,47218 South Terrace,Muncie,IN,31561
857,Wunsch Inc,3762 Scoville Pass,Huntington,WV,17701
858,Weimann-Mills,1101 Reindahl Parkway,Pittsburgh,PA,46774
859,Littel Inc,5 Maywood Pass,Atlanta,GA,81298
860,Rutherford-Murphy,22 Pearson Crossing,Savannah,GA,43404
861,Parker-O'Keefe,212 Glacier Hill Parkway,Phoenix,AZ,32903
862,"Turcotte, Hilll and O'Hara",373 Meadow Valley Way,Kansas City,MO,16896
863,"Okuneva, Stamm and Schmidt",682 Morningstar Junction,Anchorage,AK,33311
864,Lowe-Sauer,7 Eastlawn Drive,Honolulu,HI,40810
865,Cole Inc,9 6th Terrace,Boulder,CO,95577
866,Kulas Inc,6525 Oak Crossing,Austin,TX,13829
867,"Hintz, Renner and Gulgowski",490 Nelson Drive,Rochester,NY,84161
868,Ullrich Group,96617 Gulseth Circle,Joliet,IL,75149
869,"Dickens, Mann and Herman",35 Sachtjen Road,Birmingham,AL,24103
870,Conn Group,2389 Old Gate Lane,Toledo,OH,84742
871,Weber-Ziemann,1 Mandrake Plaza,Cheyenne,WY,13653
872,Schmidt and Sons,12656 Carey Court,Jefferson City,MO,31163
873,Leuschke Group,4 Jenifer Street,Des Moines,IA,70930
874,"Swaniawski, Johnston and Bartell",9 Monument Point,Denver,CO,77416
875,"Fisher, Olson and Wisoky",01453 Columbus Parkway,El Paso,TX,59741
876,Waelchi and Sons,46945 Sloan Pass,Charlotte,NC,99009
877,Johns Group,9 Debs Court,San Antonio,TX,15807
878,Hoppe-Schinner,5 Columbus Center,Albany,NY,88651
879,Kuhic LLC,9066 Cody Hill,Milwaukee,WI,80000
880,Rempel Inc,07596 Waubesa Plaza,Sarasota,FL,52312
881,Dickens Inc,24402 Forest Parkway,Tulsa,OK,39315
882,"Cremin, Gorczany and Ward",2 Magdeline Center,Miami,FL,57196
883,Tromp-West,9992 Barnett Court,Wichita Falls,TX,59954
884,Conn-Hoeger,1 Mallory Lane,Tacoma,WA,54385
885,"Klein, Reynolds and Gutkowski",552 Declaration Circle,Syracuse,NY,46615
886,"Swaniawski, White and Becker",00953 Mayfield Circle,Sacramento,CA,26779
887,"Kertzmann, Dibbert and Zemlak",27 Mockingbird Hill,Wilkes Barre,PA,79302
888,Baumbach-Morissette,42672 Jackson Court,Los Angeles,CA,92835
889,"Harber, Quigley and Prohaska",45 Portage Terrace,Sioux Falls,SD,71722
890,"Erdman, Wolf and Orn",8206 Merchant Road,Fullerton,CA,39577
891,Flatley-Schiller,6 Harbort Place,Fort Wayne,IN,97909
892,Jacobs Group,5 Columbus Pass,Erie,PA,70513
893,Cole-Carroll,46219 Hansons Center,San Antonio,TX,89828
894,Kling and Sons,28 Elmside Court,Arlington,VA,54386
895,West LLC,2 Mitchell Circle,Washington,DC,32291
896,Witting LLC,94908 Judy Drive,Oklahoma City,OK,55968
897,Greenholt Group,62488 Alpine Court,New Orleans,LA,84116
898,"Bahringer, Hamill and Crist",05 Lakewood Gardens Lane,Shreveport,LA,98292
899,Erdman Group,7 Hoepker Road,Springfield,IL,96457
900,"Brekke, Jerde and Kulas",913 Mcbride Crossing,Erie,PA,54509
901,"Ondricka, Gorczany and Kshlerin",9047 Mallory Street,Minneapolis,MN,93563
902,Dickinson Inc,7938 Bellgrove Plaza,Topeka,KS,49480
903,Dickinson-Osinski,0 Rieder Plaza,Santa Ana,CA,92778
904,Murphy Inc,99846 Starling Alley,El Paso,TX,89579
905,Windler Inc,6 Cascade Parkway,Las Vegas,NV,68875
906,Corkery-Weimann,380 Barby Plaza,Miami,FL,69044
907,"Thompson, Kihn and Leffler",7340 Hermina Plaza,Richmond,VA,17010
908,"Leuschke, Grant and Sanford",3 Stone Corner Plaza,Akron,OH,16592
909,Steuber and Sons,8781 Elka Pass,Indianapolis,IN,49423
910,"Runolfsdottir, Harris and Borer",877 Kenwood Park,Pittsburgh,PA,64374
911,Kohler Inc,441 Morning Court,Jacksonville,FL,80916
912,Rau-Donnelly,84477 Dunning Court,New York City,NY,90054
913,Kunde and Sons,8289 Gale Court,Birmingham,AL,51332
914,Koch LLC,71 Westend Crossing,Kansas City,KS,60599
915,Bashirian-Reichert,556 Carpenter Way,Asheville,NC,18504
916,Gislason LLC,168 Delaware Alley,Houston,TX,14193
917,Heathcote-Muller,7 Kingsford Court,Portland,OR,40018
918,"Kuhn, Feeney and Morar",165 Michigan Street,Charlotte,NC,57570
919,Borer-Cassin,8 Eagle Crest Crossing,Saint Petersburg,FL,27924
920,McKenzie-McKenzie,839 Washington Circle,Seattle,WA,23651
921,Hamill Inc,1 Melvin Crossing,Sacramento,CA,43020
922,Adams-Mraz,0 Luster Center,Philadelphia,PA,30399
923,Brakus LLC,454 Algoma Drive,Oklahoma City,OK,69822
924,"Gibson, Luettgen and Lubowitz",178 Heffernan Street,Boston,MA,83847
925,"McCullough, Gusikowski and Hauck",42832 Tony Street,Detroit,MI,92048
926,Fritsch Inc,198 Kinsman Parkway,Stamford,CT,90227
927,McGlynn-Pfannerstill,312 Southridge Park,Pittsburgh,PA,89747
928,"Stanton, Harris and Volkman",6589 Golden Leaf Road,Trenton,NJ,22182
929,"Johnston, Ortiz and Kub",669 Dixon Way,Orange,CA,82280
930,Gaylord Inc,05207 Coolidge Point,Rochester,NY,44746
931,Haag Inc,7636 Miller Point,Grand Rapids,MI,66484
932,Collier Inc,931 Kropf Circle,Peoria,IL,38835
933,"Gorczany, Swaniawski and Runte",290 6th Junction,Dayton,OH,39632
934,Pollich-Williamson,437 Melrose Hill,Atlanta,GA,63386
935,Hand-Rodriguez,17763 Killdeer Drive,Los Angeles,CA,73955
936,"Larkin, Zulauf and Roberts",4971 Center Plaza,Virginia Beach,VA,47681
937,Considine-Shields,3 Almo Street,Brooklyn,NY,70588
938,"Cummings, Mraz and Rempel",20227 Oneill Park,Valdosta,GA,83905
939,"Schuster, Wiza and Donnelly",624 East Center,Washington,DC,37418
940,"Ullrich, Gerlach and Barrows",3639 Barby Circle,Bismarck,ND,66947
941,Hodkiewicz Inc,1 Tony Parkway,Pensacola,FL,43269
942,Klein-Mitchell,48 Blue Bill Park Parkway,Charlotte,NC,68852
943,Cremin LLC,86 Algoma Trail,Lincoln,NE,69064
944,Rippin and Sons,7630 Shasta Alley,Jacksonville,FL,77649
945,Hackett-Walter,38 Chinook Lane,Waterbury,CT,92248
946,Botsford Group,1 Mandrake Avenue,Lexington,KY,64797
947,Cummerata Group,03 Golden Leaf Crossing,El Paso,TX,99244
948,"Murray, Little and Sauer",49602 4th Hill,Charlotte,NC,10738
949,Boyer-Welch,3712 High Crossing Lane,Pensacola,FL,14708
950,Casper LLC,3 Rieder Avenue,Fort Wayne,IN,92705
951,Denesik-Toy,3375 Tony Lane,Mobile,AL,54960
952,Smith-Lang,4683 Loftsgordon Pass,Rockford,IL,12718
953,Hudson Group,38720 Heath Drive,Arlington,TX,57405
954,Jenkins-Satterfield,7197 Service Pass,Kansas City,MO,32631
955,Bayer Group,3352 Green Ridge Center,Hampton,VA,98489
956,Kshlerin Group,6 Mariners Cove Circle,Denver,CO,50598
957,Adams Group,0214 Garrison Street,Billings,MT,90932
958,Rutherford-Schuster,82 Ridgeview Junction,Kissimmee,FL,44414
959,Gutmann-Macejkovic,1 Sunnyside Trail,Scranton,PA,91012
960,"Gutkowski, Hegmann and Kreiger",78 Maple Junction,Athens,GA,80295
961,Cole Group,67 East Parkway,Daytona Beach,FL,96657
962,Stamm-Wilkinson,76 Del Mar Park,Washington,DC,15520
963,"Langworth, Schroeder and Anderson",70289 Sunbrook Crossing,Albany,NY,54740
964,"Friesen, Mayert and Schumm",883 Stuart Alley,Fort Myers,FL,37252
965,Heller LLC,15328 Clyde Gallagher Place,New York City,NY,79550
966,Murphy Inc,5 Hooker Point,Columbus,OH,12017
967,Boehm-Carter,7 Lien Crossing,Kansas City,MO,73038
968,Fay-Konopelski,001 Hansons Drive,Detroit,MI,65773
969,"Kutch, Cormier and O'Hara",56 Surrey Alley,Dallas,TX,63381
970,"Schowalter, Runolfsson and Skiles",70489 Homewood Place,Los Angeles,CA,18464
971,Goyette-Bradtke,33 Clove Plaza,Portland,OR,20104
972,Mayer-Gibson,869 Claremont Lane,Brooklyn,NY,96919
973,Boehm-Dietrich,45 Anniversary Court,Rochester,NY,29854
974,"Collier, Batz and Wilkinson",7081 Ronald Regan Alley,Cleveland,OH,47447
975,Bednar-Stamm,17246 Sundown Place,Rockford,IL,88262
976,Lueilwitz-Schaefer,5094 Calypso Alley,Miami,FL,88603
977,Schimmel and Sons,63411 Kipling Park,Huntsville,TX,20861
978,Larson and Sons,4859 Jana Crossing,Huntington Beach,CA,23108
979,Mertz Inc,820 Ridgeview Trail,Fort Worth,TX,12221
980,"Sporer, Medhurst and Harvey",4 Declaration Avenue,Boise,ID,47622
981,"Shanahan, Little and Hagenes",93463 Eagan Parkway,Salt Lake City,UT,12249
982,"Tromp, Pacocha and Hoeger",4035 Elmside Place,Greenville,SC,16829
983,"Langworth, Orn and Daugherty",281 Main Parkway,Philadelphia,PA,66851
984,Klocko LLC,1652 Glacier Hill Street,Washington,DC,27640
985,Murphy Group,244 Barnett Avenue,Oklahoma City,OK,52201
986,Abshire-Brown,7080 Karstens Road,Indianapolis,IN,56429
987,Farrell and Sons,45 Claremont Trail,Indianapolis,IN,64530
988,Thiel-Weber,0082 Cambridge Road,Huntington,WV,58670
989,"Fisher, Ruecker and Schiller",74282 Algoma Plaza,Montgomery,AL,61904
990,"Runolfsdottir, Lowe and Beahan",4 Bashford Crossing,Newark,DE,53078
991,Kuhn and Sons,1655 Charing Cross Way,Houston,TX,93991
992,"Beer, Cassin and Johnson",44 Forest Dale Plaza,Columbia,SC,40878
993,"Dickens, Torp and Altenwerth",78 Crescent Oaks Lane,Youngstown,OH,30734
994,Leffler-Boyle,1 Scoville Parkway,Washington,DC,58026
995,Sporer-Flatley,89 Holmberg Circle,San Jose,CA,19140
996,Baumbach LLC,390 Raven Alley,Columbia,SC,94731
997,Schroeder-Murphy,976 Elgar Way,Mobile,AL,95513
998,Erdman and Sons,77932 Erie Junction,Arlington,TX,36679
999,"Hamill, Zboncak and Labadie",871 Grim Crossing,Richmond,VA,92305
1000,"Corkery, Littel and Borer",0246 Golf View Avenue,Vancouver,WA,54934
