DEALER_ID,DEALER_NAME,ADDRESS,CITY,STATE,ZIP
1,Lynch Group,2 Heffernan Center,Decatur,Georgia,51979
2,"Anderson, Shields and Price",25 Westerfield Court,Jackson,Mississippi,12282
3,Schaefer LLC,76 Bellgrove Alley,Phoenix,Arizona,18383
4,Mraz and Sons,341 Banding Plaza,Philadelphia,Pennsylvania,35018
5,Jacobs-Parker,496 Portage Circle,Akron,Ohio,47761
6,Prohaska Inc,05 Mayer Alley,Fort Lauderdale,Florida,84082
7,Rutherford-Altenwerth,979 Loomis Hill,San Jose,California,79760
8,"Ondricka, Schmeler and Ledner",91 Twin Pines Avenue,Manassas,Virginia,72501
9,VonRueden and Sons,31021 Northview Pass,Columbus,Georgia,44887
10,Harber Inc,4 Monica Drive,Fort Worth,Texas,15645
11,Sipes Group,40680 Thompson Way,Knoxville,Tennessee,36115
12,"Powlowski, Littel and Adams",87 Truax Plaza,Youngstown,Ohio,70526
13,Hettinger-Conroy,3 5th Street,Shreveport,Louisiana,94528
14,Halvorson and Sons,232 Artisan Junction,Albany,New York,92957
15,Aufderhar and Sons,6788 Golf Course Trail,Rockford,Illinois,95489
16,"O'Keefe, Koepp and Raynor",64 Loomis Way,Fresno,California,70448
17,Rippin LLC,755 Leroy Parkway,Dayton,Ohio,66198
18,"Durgan, Connelly and Osinski",642 Monument Park,Lincoln,Nebraska,98073
19,Robel Group,8643 Union Trail,Youngstown,Ohio,91455
20,Goyette LLC,488 Paget Center,Washington,DC,31596
21,Keeling-Tremblay,16091 Nancy Lane,Pittsburgh,Pennsylvania,79114
22,"Braun, Harber and Emard",85821 Heath Way,Syracuse,New York,24419
23,Veum LLC,78411 Crownhardt Lane,Washington,DC,59760
24,Hane-Lindgren,6101 Reinke Parkway,North Las Vegas,Nevada,28675
25,Herman Inc,60071 Bobwhite Junction,Spartanburg,South Carolina,77351
26,Harris-O'Connell,42075 Continental Junction,Minneapolis,Minnesota,14551
27,Effertz-Bogisich,900 Old Shore Alley,Pomona,California,68639
28,Buckridge-Collins,83 Shoshone Parkway,Tacoma,Washington,40400
29,O'Conner Inc,35442 Arizona Junction,Stamford,Connecticut,28421
30,Bernier-Goodwin,6 Iowa Place,Des Moines,Iowa,32359
31,"Ortiz, Wolf and Ankunding",1051 Carpenter Court,Milwaukee,Wisconsin,97709
32,Mayer-Kris,9474 Lakewood Junction,San Antonio,Texas,45871
33,"Osinski, Dibbert and Ondricka",70919 Havey Plaza,Palo Alto,California,81716
34,Pouros LLC,121 Lake View Parkway,Memphis,Tennessee,17647
35,Goodwin-Von,763 Lotheville Center,Portland,Oregon,57841
36,"Torp, Rohan and Reichel",828 Vernon Lane,Kansas City,Kansas,88134
37,"Roberts, Hills and Crooks",576 Melrose Hill,Fort Wayne,Indiana,16644
38,Bogan and Sons,494 Ryan Pass,Helena,Montana,82739
39,Leannon-Baumbach,37 Marcy Parkway,Paterson,New Jersey,93066
40,Bashirian-Klocko,187 Waywood Way,Pittsburgh,Pennsylvania,38543
41,"Daugherty, Oberbrunner and Howe",21 Mayer Way,Honolulu,Hawaii,11879
42,Hilpert Group,64 Farragut Way,Aurora,Colorado,88305
43,"Gottlieb, DuBuque and Green",2446 Elmside Place,Winston Salem,North Carolina,37451
44,Bosco LLC,517 Northwestern Place,Birmingham,Alabama,57102
45,McClure Inc,54 Susan Circle,Denver,Colorado,28640
46,Cremin-Gottlieb,22986 Stone Corner Point,Baton Rouge,Louisiana,91815
47,Gerlach LLC,4 Sunfield Circle,Woburn,Massachusetts,10808
48,Olson-Sporer,6 Butterfield Place,Oklahoma City,Oklahoma,32204
49,Beier-Runolfsson,09 Welch Way,Salt Lake City,Utah,64731
50,Beier-Murazik,75050 Hovde Trail,Seattle,Washington,63341
51,"Quitzon, Crooks and Kertzmann",5048 Melody Way,Greenville,South Carolina,93277
52,"West, Hamill and Kessler",32 Mosinee Plaza,Shawnee Mission,Kansas,58093
53,"Cronin, Marquardt and Jacobson",22 Rieder Street,Dallas,Texas,30638
54,"Hoeger, Nicolas and Thiel",42272 Bellgrove Pass,Trenton,New Jersey,31227
55,Donnelly and Sons,613 Meadow Ridge Drive,Huntsville,Alabama,54956
56,Howe Inc,9 Rigney Street,Saint Cloud,Minnesota,60249
57,Herman and Sons,1588 Oakridge Parkway,Honolulu,Hawaii,58267
58,Braun and Sons,5 Montana Drive,Cumming,Georgia,24304
59,"Gerhold, Goldner and Wiza",01 Arapahoe Center,Tampa,Florida,83126
60,Konopelski-McGlynn,71348 Miller Plaza,Omaha,Nebraska,59031
61,Runolfsson-Heaney,99553 Northland Court,Oklahoma City,Oklahoma,68605
62,Douglas Inc,1 Thompson Road,Denver,Colorado,25467
63,Weimann Inc,3653 Talmadge Hill,Jacksonville,Florida,91526
64,Zieme-Considine,69373 Eggendart Park,Denver,Colorado,38782
65,Stroman-Gibson,71 Dwight Lane,Des Moines,Iowa,20138
66,"Goyette, Blick and Mills",88006 Forest Dale Way,Spring,Texas,27864
67,Feest-Ratke,5 Dorton Place,Charlotte,North Carolina,61402
68,"Murazik, O'Keefe and Schoen",94 Knutson Hill,Nashville,Tennessee,51822
69,Stoltenberg-Schumm,42 Macpherson Point,Glendale,Arizona,81893
70,"Abshire, Stiedemann and Boehm",3 Michigan Way,Newport News,Virginia,99987
71,Hauck Group,02 Ridgeway Trail,San Jose,California,58079
72,Sipes-Witting,4 Farmco Point,Hialeah,Florida,66117
73,Gottlieb LLC,28839 Helena Parkway,Memphis,Tennessee,80516
74,"Macejkovic, Kreiger and Kuhn",09 Sutherland Junction,Jacksonville,Florida,63971
75,"Turcotte, Bruen and Haag",275 Bunker Hill Junction,Memphis,Tennessee,10407
76,"Hudson, Quigley and Stamm",4232 Toban Circle,Pensacola,Florida,24207
77,Turcotte-Murazik,6172 Kim Court,Burbank,California,24282
78,Rolfson-Wyman,45459 Lakewood Point,Shawnee Mission,Kansas,80426
79,Predovic LLC,945 Commercial Plaza,Birmingham,Alabama,57957
80,"West, Ebert and Reichert",260 Oakridge Plaza,Sarasota,Florida,75966
81,"Rutherford, Russel and Prohaska",33 Aberg Drive,Miami,Florida,15142
82,Hermann LLC,77497 Kim Center,Tyler,Texas,77781
83,Wunsch Group,41 Laurel Drive,Warren,Michigan,22024
84,Harris LLC,29894 Morningstar Avenue,Seattle,Washington,57272
85,"Schroeder, Eichmann and Hammes",730 Golf Pass,Charlotte,North Carolina,92222
86,"Hickle, Bartell and Lockman",17 Hauk Court,Detroit,Michigan,70976
87,"Bernier, Will and Gleason",8661 Birchwood Terrace,New Hyde Park,New York,67168
88,Haag Group,91324 Corben Road,Fort Myers,Florida,48596
89,"Gottlieb, Mueller and Wolf",64 Susan Place,Oakland,California,87244
90,"Skiles, Harber and Fahey",8 Clyde Gallagher Way,Athens,Georgia,58167
91,Reynolds-Kuvalis,5113 Fallview Circle,Fresno,California,59477
92,Johnston and Sons,35200 Stoughton Road,Wichita,Kansas,21321
93,McLaughlin-Zieme,03 Muir Court,Montgomery,Alabama,39417
94,Eichmann Inc,9497 Mifflin Hill,Jefferson City,Missouri,78923
95,"Nolan, Jast and Effertz",09796 Anhalt Avenue,New York City,New York,99617
96,Huels Inc,4 Declaration Place,Richmond,Virginia,96060
97,Schmitt-Leuschke,720 Michigan Terrace,Cleveland,Ohio,16629
98,Jones LLC,15748 Menomonie Way,Duluth,Minnesota,59758
99,Medhurst-Raynor,82 Sutteridge Circle,Lexington,Kentucky,44420
100,Kreiger Inc,128 Columbus Court,Charlotte,North Carolina,13422
101,"Batz, Reichel and Farrell",3 Fairview Circle,Virginia Beach,Virginia,68374
102,Prohaska Group,03 Elmside Way,Pittsburgh,Pennsylvania,12000
103,Okuneva-Rempel,57 6th Road,Sacramento,California,31375
104,Wisozk LLC,9 Manufacturers Crossing,Mansfield,Ohio,46599
105,Kuhlman Inc,00 Elka Avenue,Gainesville,Florida,32275
106,Mayer LLC,8290 Kensington Point,Seattle,Washington,34669
107,Ryan Group,39514 Sage Street,Kansas City,Kansas,90739
108,Stoltenberg and Sons,4 Heath Street,Green Bay,Wisconsin,41085
109,McCullough Inc,08822 Luster Alley,Chicago,Illinois,75968
110,Weissnat-Williamson,4 Alpine Circle,Cincinnati,Ohio,86880
111,Murray-Schneider,053 Sunnyside Center,Austin,Texas,63670
112,Yundt-Schultz,49 Kropf Parkway,Shawnee Mission,Kansas,68508
113,Thompson Group,66 La Follette Drive,Clearwater,Florida,29098
114,"Kunze, Mayer and Ward",5 Corry Trail,Austin,Texas,89408
115,"Zboncak, Daugherty and Okuneva",09661 Dakota Junction,Battle Creek,Michigan,91487
116,Feeney-Ankunding,463 Corben Park,Philadelphia,Pennsylvania,52169
117,Ankunding-Marquardt,48594 Hazelcrest Drive,Jacksonville,Florida,38879
118,Gorczany-Moore,32677 Merrick Drive,Shreveport,Louisiana,79028
119,Jacobs-Pagac,8365 Talisman Road,Kansas City,Missouri,71807
120,Kiehn Group,399 Gina Center,Waterloo,Iowa,74204
121,Bernier-Medhurst,2 Mallory Crossing,Spokane,Washington,32225
122,"Beatty, Wisozk and Romaguera",8 Shelley Point,Washington,DC,72125
123,"Brown, Considine and Homenick",0 Tony Avenue,Apache Junction,Arizona,10376
124,Hilll-Little,049 Spohn Trail,Columbia,Missouri,37957
125,"Ortiz, Prosacco and Weimann",3 Sullivan Center,Eugene,Oregon,15656
126,"Schulist, Bailey and Stokes",5293 Russell Court,Lubbock,Texas,28094
127,Kutch-Tremblay,01311 Fuller Trail,Houston,Texas,58558
128,"King, Lemke and Lynch",53 1st Court,Charleston,West Virginia,79458
129,Morar Group,25818 Anderson Crossing,White Plains,New York,34332
130,Macejkovic LLC,093 Elmside Plaza,Whittier,California,55976
131,Haag-Stroman,3331 Coolidge Trail,New York City,New York,62116
132,Haag-Cartwright,406 Esch Street,Alexandria,Virginia,16678
133,Huels-Frami,6264 Mariners Cove Crossing,Littleton,Colorado,27571
134,"Bode, Altenwerth and Borer",87 Nancy Drive,New Orleans,Louisiana,30794
135,"Dickens, Crist and Ziemann",733 Leroy Street,Toledo,Ohio,80908
136,Price-Ebert,09933 Farmco Pass,Washington,DC,42603
137,"Oberbrunner, Thiel and Wilkinson",9135 Hoard Avenue,Honolulu,Hawaii,93324
138,Watsica and Sons,2 Carioca Trail,Ogden,Utah,62542
139,"Abbott, Dibbert and Gerhold",4466 Monica Terrace,Albany,New York,69422
140,Purdy Inc,1898 Logan Crossing,Youngstown,Ohio,34667
141,Kuphal-Kovacek,1014 Oneill Trail,Vero Beach,Florida,26265
142,Walter-Schamberger,15002 Granby Terrace,Clearwater,Florida,17079
143,"Pfeffer, Barrows and Kilback",40648 Mcguire Junction,Tacoma,Washington,51939
144,"Wehner, Monahan and Balistreri",40 Moose Trail,White Plains,New York,11907
145,Connelly Inc,31 Sutteridge Point,Colorado Springs,Colorado,20640
146,Braun and Sons,3 Fallview Trail,Glendale,Arizona,90013
147,Anderson LLC,891 Texas Lane,Bethesda,Maryland,68900
148,Dicki-Jacobson,71 Michigan Alley,Flushing,New York,98025
149,"Roob, Swaniawski and Morissette",58976 Spaight Lane,Houston,Texas,27850
150,Gulgowski-Russel,799 Sundown Trail,Alexandria,Virginia,97366
151,Pollich-Trantow,4831 Russell Drive,Colorado Springs,Colorado,18039
152,Streich-Hamill,952 Morrow Center,Indianapolis,Indiana,42331
153,"Bahringer, O'Kon and Kemmer",6 Packers Park,San Antonio,Texas,11068
154,"Rolfson, Schamberger and Roberts",9464 Randy Drive,Denver,Colorado,16190
155,Denesik Inc,78 Bellgrove Trail,Baton Rouge,Louisiana,48805
156,Schultz Group,823 Meadow Ridge Way,El Paso,Texas,46844
157,Rutherford-Padberg,801 Spaight Avenue,Oakland,California,98025
158,Langworth Group,925 Graedel Alley,Sioux City,Iowa,51936
159,King-Pollich,614 Heffernan Drive,San Diego,California,90905
160,Windler Inc,16640 Warrior Park,Kalamazoo,Michigan,50850
161,"Flatley, O'Conner and Heaney",54 Cascade Alley,Greensboro,North Carolina,58326
162,"Rogahn, Vandervort and Price",7914 Chinook Avenue,Pensacola,Florida,25596
163,Lind-Runolfsdottir,576 Manitowish Crossing,Decatur,Georgia,20733
164,Kozey LLC,4 Arkansas Street,Norfolk,Virginia,84712
165,Will and Sons,4470 Buena Vista Lane,Orlando,Florida,36922
166,"Fay, Reichert and Rempel",653 Northview Avenue,Orlando,Florida,51701
167,Hauck Group,71 Sunbrook Parkway,Modesto,California,36844
168,"Bashirian, Bode and Collier",40 Harper Place,Bronx,New York,28864
169,"Bradtke, Osinski and Rau",69 Fairfield Way,San Rafael,California,58718
170,Mayer Group,6 Paget Hill,Fresno,California,28815
171,Emmerich-Gleichner,83616 Pankratz Trail,San Diego,California,66034
172,Russel-Eichmann,9 Pepper Wood Drive,Albuquerque,New Mexico,73047
173,McKenzie-Adams,95 Lotheville Court,Tampa,Florida,69470
174,Kertzmann-Reynolds,6 Moose Center,Peoria,Illinois,43992
175,"Bode, Terry and Smitham",10958 Stephen Street,Peoria,Illinois,38799
176,O'Conner LLC,07225 Grim Road,Tacoma,Washington,66447
177,"Stiedemann, Ankunding and Leannon",3035 Wayridge Hill,Billings,Montana,39199
178,"Keebler, Jenkins and Pouros",076 Talmadge Circle,Akron,Ohio,84938
179,Labadie Group,90 Pine View Junction,Fullerton,California,40523
180,Goyette-Farrell,52230 Sommers Alley,Albany,New York,24254
181,Hintz LLC,3889 Lillian Plaza,Santa Fe,New Mexico,65033
182,Veum Inc,02 Del Sol Court,Montgomery,Alabama,88184
183,Feil-Corwin,0 Columbus Hill,Bellevue,Washington,33663
184,Mann and Sons,5770 Spohn Alley,Carson City,Nevada,41898
185,Donnelly Inc,7 Farwell Road,Portsmouth,New Hampshire,22337
186,Nienow-Waters,81 Roth Alley,Charlotte,North Carolina,55164
187,"Schowalter, VonRueden and Torp",13 Golf Course Circle,Hayward,California,92348
188,Collins LLC,687 Straubel Hill,Boston,Massachusetts,75496
189,Carroll-Veum,8070 Alpine Avenue,Pittsburgh,Pennsylvania,44550
190,Carroll and Sons,91 Buena Vista Terrace,Phoenix,Arizona,14108
191,"Hartmann, Prohaska and Schoen",43 Division Trail,Des Moines,Iowa,60289
192,Jaskolski Group,1 Marquette Park,Boise,Idaho,51391
193,Lindgren and Sons,77 Elka Circle,Kansas City,Missouri,46522
194,"Hayes, Schroeder and Dach",0939 Londonderry Terrace,Delray Beach,Florida,46036
195,Cole-Cummerata,25 Jenifer Crossing,Killeen,Texas,98591
196,"Tromp, Kautzer and Oberbrunner",7 Londonderry Parkway,Shawnee Mission,Kansas,32249
197,Gusikowski LLC,2778 Moland Court,Fresno,California,69957
198,Sipes-Mante,1233 Mcguire Trail,Minneapolis,Minnesota,40119
199,Donnelly-Koelpin,6 Hagan Point,Jamaica,New York,10197
200,"Davis, Roob and Waelchi",747 Harbort Hill,Charlotte,North Carolina,97131
201,"Bergnaum, Bruen and Lehner",6 Butterfield Road,Washington,DC,88355
202,Hilpert-Gleason,8 Sutteridge Center,Atlanta,Georgia,18335
203,"Ernser, Walker and Senger",06 Loftsgordon Pass,Columbia,Missouri,97941
204,Beatty Group,456 Harper Plaza,Santa Ana,California,55780
205,Nicolas and Sons,26859 Buena Vista Pass,Pittsburgh,Pennsylvania,67213
206,Brekke Inc,134 Sage Parkway,Baltimore,Maryland,45344
207,Corwin-Fisher,9 Browning Hill,Paterson,New Jersey,58434
208,Schowalter Inc,77 Eastwood Avenue,Winston Salem,North Carolina,79251
209,Schmeler Inc,3 Northport Crossing,Charlotte,North Carolina,55420
210,"Brekke, Funk and Mills",97225 Fieldstone Circle,Houston,Texas,11566
211,"Kohler, Reilly and Ankunding",0995 Mesta Place,Port Saint Lucie,Florida,21044
212,Crona and Sons,01967 Harbort Pass,Columbia,South Carolina,68447
213,"MacGyver, Brown and Morar",38900 Dovetail Parkway,Erie,Pennsylvania,37742
214,Roob-Spinka,66 Scoville Junction,Louisville,Kentucky,79441
215,McClure Inc,4 Oakridge Place,Littleton,Colorado,79841
216,"Ruecker, Lubowitz and Bartell",8955 Eliot Drive,Palmdale,California,50172
217,Mosciski Group,6 Forest Lane,Milwaukee,Wisconsin,52883
218,Schumm-Morissette,8117 Linden Crossing,Boise,Idaho,14327
219,Rogahn-Muller,95063 Dovetail Point,Denver,Colorado,14780
220,"Blanda, Raynor and O'Hara",41656 Del Sol Avenue,Washington,DC,14993
221,"Konopelski, Nienow and Deckow",56 5th Drive,Terre Haute,Indiana,30154
222,DuBuque-Treutel,589 Florence Pass,Kansas City,Missouri,80121
223,"Hickle, Daugherty and Shanahan",04 Russell Circle,Dallas,Texas,28412
224,Frami Group,99634 Utah Alley,Washington,DC,21516
225,Kunde Inc,455 Utah Avenue,Salem,Oregon,99270
226,"White, Parisian and O'Keefe",498 Anthes Pass,Arlington,Texas,71401
227,Runolfsson-Price,66421 Hudson Park,Washington,DC,12849
228,Oberbrunner Inc,3675 Sutteridge Parkway,San Jose,California,36669
229,Cartwright-Bahringer,37 Hauk Avenue,Berkeley,California,59493
230,"Wolff, Lockman and Casper",281 Elgar Center,Largo,Florida,20725
231,Bernier-Smitham,08583 Straubel Parkway,Boston,Massachusetts,42886
232,"Glover, Nolan and Padberg",46 Schlimgen Avenue,Nashville,Tennessee,58595
233,"Hudson, Bins and Medhurst",2818 Spohn Plaza,Sarasota,Florida,17104
234,"Luettgen, Bins and Deckow",98 Grasskamp Lane,El Paso,Texas,26319
235,Cummings-Wyman,92 Jackson Place,San Angelo,Texas,21717
236,Wisoky Group,276 Oneill Drive,El Paso,Texas,98702
237,White LLC,8026 Vahlen Center,Charlotte,North Carolina,46863
238,"Rath, Stiedemann and Legros",101 Chinook Alley,San Antonio,Texas,62456
239,"Armstrong, Shields and Parisian",9712 Bayside Alley,Chicago,Illinois,10153
240,Mohr-Schmitt,022 School Way,Bethlehem,Pennsylvania,99114
241,"Quitzon, Wiza and Daniel",05571 Kennedy Court,Fort Smith,Arkansas,78916
242,Kirlin Inc,98546 Melody Street,Winston Salem,North Carolina,56934
243,Wiza-Hermann,20 Northport Street,Philadelphia,Pennsylvania,78767
244,Treutel-Johnson,530 Sheridan Circle,Washington,DC,48906
245,"Mraz, McClure and Terry",3871 Mockingbird Alley,Ogden,Utah,53882
246,Beier-Haag,6 Corscot Junction,Boulder,Colorado,87653
247,Marquardt Inc,56 Declaration Street,Greensboro,North Carolina,13827
248,Graham and Sons,08082 Prairie Rose Trail,Largo,Florida,31024
249,Erdman and Sons,439 Atwood Center,Simi Valley,California,45040
250,"Bergstrom, Hettinger and Lind",19 Briar Crest Terrace,Los Angeles,California,47046
251,O'Conner Inc,036 Golf View Way,Topeka,Kansas,81281
252,"Schneider, Heathcote and Nolan",79 Sunbrook Alley,Chula Vista,California,72870
253,"Mertz, Larson and West",948 Toban Point,Los Angeles,California,67869
254,Cummings-Jacobi,7242 Luster Park,Milwaukee,Wisconsin,13292
255,Prosacco-Grady,7 Stone Corner Alley,Los Angeles,California,57531
256,"Ebert, Donnelly and Herman",622 Kingsford Park,South Bend,Indiana,95425
257,Christiansen-Kautzer,3 Tony Junction,Naples,Florida,49821
258,White Inc,02 La Follette Circle,Baltimore,Maryland,94132
259,Doyle Inc,37 Merchant Center,Austin,Texas,63211
260,McDermott-Ortiz,3284 Dunning Street,Terre Haute,Indiana,16497
261,"Kutch, Skiles and Mitchell",0 Sloan Trail,Houston,Texas,38088
262,"Walker, Lesch and Simonis",6680 Lerdahl Road,Beaverton,Oregon,57633
263,Schulist-Blick,42248 Sycamore Junction,Baton Rouge,Louisiana,75241
264,Watsica-Cruickshank,34328 Mariners Cove Pass,Lexington,Kentucky,39811
265,Rutherford-Stanton,6967 Walton Avenue,Silver Spring,Maryland,93628
266,Schulist-Bauch,44 Waxwing Avenue,Shawnee Mission,Kansas,36510
267,Kulas Inc,12 Waubesa Pass,Albany,New York,46798
268,Kris and Sons,80 Dawn Crossing,Norfolk,Virginia,42643
269,"Will, Armstrong and Carter",431 Hoepker Center,Columbus,Georgia,99612
270,"Howell, Franecki and McCullough",42983 Kipling Crossing,Las Vegas,Nevada,64997
271,Walter-Schmitt,9818 Pepper Wood Plaza,San Antonio,Texas,85783
272,Kuhn-Kilback,260 Sunnyside Circle,Waco,Texas,89515
273,Tillman-Gutmann,4 Dunning Point,Milwaukee,Wisconsin,98576
274,"Dooley, Block and Jacobson",929 Dawn Way,Las Vegas,Nevada,38690
275,Wilkinson and Sons,99 Paget Terrace,Carol Stream,Illinois,51615
276,Fadel-Casper,17583 Commercial Circle,Washington,DC,96065
277,Dickens-Ruecker,3456 Rockefeller Alley,New York City,New York,44542
278,Heidenreich and Sons,345 Oak Point,Austin,Texas,77895
279,Ortiz-Kemmer,22868 American Trail,Seattle,Washington,16217
280,O'Keefe Inc,1154 Onsgard Lane,Fresno,California,47726
281,Haag Inc,1 Bashford Junction,Charlottesville,Virginia,10042
282,Walsh-Lakin,1 Memorial Way,Charlotte,North Carolina,76717
283,Farrell-Waters,2231 Golf Lane,Seattle,Washington,31449
284,Eichmann and Sons,62726 Glendale Drive,Largo,Florida,15656
285,Brekke-Lind,4027 Ridge Oak Circle,Sacramento,California,62354
286,Glover-Zulauf,191 Dayton Pass,Houston,Texas,84963
287,"Emmerich, Grant and Macejkovic",2297 Schlimgen Terrace,Wichita,Kansas,80187
288,Aufderhar-Hickle,5 Westridge Drive,Amarillo,Texas,90162
289,Schumm-Predovic,587 Saint Paul Pass,Jacksonville,Florida,46887
290,"Windler, Kunze and Baumbach",61994 Birchwood Avenue,Huntington,West Virginia,20170
291,Rosenbaum-Quitzon,526 Londonderry Road,Lansing,Michigan,51697
292,Bernhard Group,713 Oak Valley Circle,Portland,Oregon,27480
293,Wyman-Ryan,341 Knutson Crossing,Brooklyn,New York,13102
294,Christiansen-Lindgren,07 Thompson Circle,Iowa City,Iowa,26449
295,Beer-Schmitt,09107 Independence Parkway,Philadelphia,Pennsylvania,95414
296,Collier Inc,58 Morrow Trail,Charlotte,North Carolina,18552
297,Christiansen and Sons,96 Luster Parkway,Kissimmee,Florida,45116
298,"Luettgen, Kertzmann and Robel",50462 Susan Center,Sacramento,California,37190
299,Gusikowski-Parker,36 Ludington Court,Baltimore,Maryland,67292
300,"Feil, Gibson and MacGyver",52 Columbus Pass,Albany,New York,74142
301,Gleason-Homenick,9463 Parkside Terrace,Youngstown,Ohio,75205
302,Reilly LLC,14 Barnett Pass,Philadelphia,Pennsylvania,28974
303,Wolf-Cummerata,33 Hagan Street,Houston,Texas,52097
304,"Hickle, Ziemann and Jaskolski",9637 Bartelt Court,Pittsburgh,Pennsylvania,79949
305,Hauck-Fahey,904 Porter Place,Lake Charles,Louisiana,98903
306,"Altenwerth, Bartell and Huels",6 Susan Point,Austin,Texas,41881
307,"Rosenbaum, Gulgowski and Williamson",56 Kennedy Road,Macon,Georgia,91923
308,Greenholt Group,46964 Anniversary Circle,Spokane,Washington,64640
309,Veum-Walker,21979 Randy Trail,Topeka,Kansas,95751
310,"Swift, Bergnaum and Lakin",977 Hooker Parkway,Trenton,New Jersey,99221
311,Reichel Group,5296 Eagan Point,Sacramento,California,83049
312,"Swaniawski, Hessel and Bogisich",75118 Scott Pass,Rochester,New York,61324
313,Skiles-Hodkiewicz,9106 Springview Place,Birmingham,Alabama,44045
314,Hessel-Frami,238 Merrick Park,High Point,North Carolina,26287
315,"Zulauf, Thompson and DuBuque",8533 Susan Drive,Conroe,Texas,13409
316,"Leffler, Conroy and Dietrich",3694 Express Crossing,Atlanta,Georgia,79154
317,Rath-Mayer,223 Jenna Drive,Santa Cruz,California,11879
318,Morar-Little,8151 Jackson Center,Flushing,New York,71465
319,Davis and Sons,0 Melby Crossing,El Paso,Texas,91751
320,Tremblay Group,87582 Brentwood Park,Carol Stream,Illinois,35362
321,Lueilwitz-Jakubowski,26 Forest Crossing,Portsmouth,Virginia,70103
322,Torp-Stiedemann,36307 Grover Place,New York City,New York,27246
323,"Wunsch, Hand and Borer",1412 Goodland Lane,Metairie,Louisiana,55868
324,"McClure, Little and Hintz",0 School Circle,Jacksonville,Florida,75325
325,"Bechtelar, Muller and Johnson",144 Packers Way,Staten Island,New York,21171
326,"Parker, Koepp and Kuhic",506 Thompson Road,Indianapolis,Indiana,19701
327,"Stroman, Mohr and Beahan",3 Beilfuss Lane,Washington,DC,33127
328,Wiegand LLC,42 Doe Crossing Park,Houston,Texas,28547
329,"Orn, Sipes and Cartwright",17 Eastlawn Park,Iowa City,Iowa,32031
330,Jaskolski LLC,12 Delaware Place,San Antonio,Texas,72800
331,"Hills, Cartwright and Bergnaum",0385 Northview Court,Philadelphia,Pennsylvania,66745
332,Hoeger Inc,658 Hoard Way,Washington,DC,45069
333,Paucek-Crona,0291 Larry Place,Cleveland,Ohio,12345
334,"Dooley, Ondricka and Bogisich",7 Goodland Drive,Hamilton,Ohio,70923
335,Thiel and Sons,27897 Division Center,North Hollywood,California,82602
336,Crist Inc,76 Summerview Parkway,Fresno,California,91201
337,Rodriguez-Nienow,637 Maryland Parkway,Jacksonville,Florida,45511
338,Kshlerin-Reichert,7475 Shelley Lane,Pensacola,Florida,10234
339,Crist and Sons,764 Anniversary Drive,San Diego,California,36525
340,"Romaguera, Goyette and Eichmann",154 Roxbury Place,Vienna,Virginia,56973
341,Lind-Volkman,9181 Westend Drive,Tampa,Florida,86244
342,Stiedemann Inc,3340 Stone Corner Drive,Orlando,Florida,93398
343,"Swift, Fadel and Bins",438 Aberg Pass,Tacoma,Washington,35435
344,Fritsch-Oberbrunner,7649 Fairfield Pass,San Francisco,California,66388
345,"Grimes, Bernier and Donnelly",3 Dovetail Street,Detroit,Michigan,77468
346,"O'Keefe, Hoppe and Buckridge",7238 Maywood Trail,Fairfield,Connecticut,11543
347,Adams-Turcotte,33 Beilfuss Parkway,Bradenton,Florida,95574
348,Blick and Sons,1 Fallview Parkway,Fargo,North Dakota,36358
349,Luettgen-Pouros,4104 Sullivan Court,Pasadena,California,21722
350,Medhurst-Skiles,7 Doe Crossing Alley,Wilmington,Delaware,82125
351,"Spinka, Luettgen and Trantow",70931 Fordem Plaza,Fresno,California,59759
352,"Mayer, Spencer and Stiedemann",310 Aberg Junction,Young America,Minnesota,57439
353,"Kuphal, Goldner and Renner",743 Morning Junction,Jamaica,New York,20438
354,Grant-Rogahn,4 Northfield Avenue,Sacramento,California,95083
355,Stroman-Moore,09 Arizona Street,Colorado Springs,Colorado,45810
356,"Johnston, Waelchi and Welch",85384 Corben Crossing,Philadelphia,Pennsylvania,26410
357,Gorczany Group,59364 Grim Circle,Memphis,Tennessee,11723
358,Brown Inc,15 Hauk Pass,Providence,Rhode Island,27856
359,DuBuque and Sons,6 Hazelcrest Park,Madison,Wisconsin,83900
360,McLaughlin-White,1371 Lighthouse Bay Street,Columbus,Ohio,37703
361,"Corwin, Sanford and McLaughlin",3 Golf View Drive,Mesa,Arizona,97624
362,Kozey Inc,6763 Nelson Place,Macon,Georgia,88570
363,Vandervort LLC,91 Service Point,Saint Paul,Minnesota,24997
364,Konopelski LLC,3 Clarendon Hill,Dayton,Ohio,60081
365,Kuvalis-Bartell,878 Prentice Center,New York City,New York,35240
366,Moore Group,47 Lillian Alley,Saint Louis,Missouri,86948
367,McClure-O'Connell,190 Schlimgen Circle,Sacramento,California,51172
368,"Jacobi, Trantow and Murray",51648 International Trail,Jeffersonville,Indiana,38719
369,"Hermann, Stamm and Predovic",13658 Shelley Road,Washington,DC,40209
370,"Jacobi, Grady and McGlynn",83 Atwood Road,Miami,Florida,84892
371,Dach and Sons,9 Rigney Center,Springfield,Illinois,37750
372,Jacobson Inc,05464 Melvin Point,Houston,Texas,39333
373,Conn-Mann,71083 Blaine Court,Canton,Ohio,72865
374,Bogisich-Renner,10453 Westend Drive,Cincinnati,Ohio,41241
375,"McClure, Goodwin and VonRueden",79 Dixon Court,Greensboro,North Carolina,30870
376,"Cruickshank, Metz and Leuschke",35972 Bartelt Park,Sacramento,California,37236
377,"Dooley, Witting and Bashirian",52 Brown Lane,Jersey City,New Jersey,32145
378,Kuhic-Nader,28809 Bluejay Circle,York,Pennsylvania,22467
379,"Littel, Shanahan and Pollich",9 Arapahoe Hill,Long Beach,California,89722
380,Kuphal-Hauck,585 Lake View Parkway,Fairbanks,Alaska,81408
381,"Gusikowski, Torp and Aufderhar",20 Mockingbird Trail,Danbury,Connecticut,72245
382,"Upton, Rosenbaum and Schuster",40707 Clemons Alley,Trenton,New Jersey,49450
383,Mohr Inc,5 Eagle Crest Crossing,Phoenix,Arizona,91661
384,"Cummerata, Wilderman and Lind",769 Texas Parkway,Evansville,Indiana,79882
385,Cole-Heller,68809 Mayfield Lane,East Saint Louis,Illinois,57166
386,Wyman-Bergnaum,27216 Little Fleur Court,Santa Monica,California,81920
387,Thiel-Rodriguez,5327 Roth Terrace,Baltimore,Maryland,69253
388,"Roberts, Reynolds and McLaughlin",87 Barnett Street,Fort Wayne,Indiana,68943
389,Ondricka Inc,86665 Dorton Avenue,Shawnee Mission,Kansas,22950
390,"Daniel, Lubowitz and Wisoky",2 Reindahl Court,Erie,Pennsylvania,31012
391,Konopelski Group,625 Daystar Avenue,Norfolk,Virginia,63303
392,"Mann, Kshlerin and Douglas",91 Stephen Pass,Atlanta,Georgia,37215
393,"Hilll, Bergnaum and Beer",4 Bellgrove Avenue,Austin,Texas,22764
394,"Bashirian, Mraz and Harvey",35 Karstens Court,Brooklyn,New York,90981
395,"Hegmann, Kub and Robel",58435 Randy Trail,High Point,North Carolina,98822
396,Boyer-Heller,29511 Morningstar Trail,Oklahoma City,Oklahoma,70636
397,"Schneider, Gutmann and Hahn",527 Sage Road,Lexington,Kentucky,17554
398,Cassin LLC,8709 Morningstar Pass,Huntington,West Virginia,71127
399,O'Conner-Lynch,518 Oxford Terrace,Roanoke,Virginia,72267
400,"Sauer, Koss and Crona",61 Stang Point,New York City,New York,18922
401,Brakus LLC,1009 Claremont Plaza,Lynchburg,Virginia,70927
402,Shields-Yost,875 Sunfield Park,Daytona Beach,Florida,87001
403,"Schiller, Waters and Gutkowski",7262 Waywood Crossing,Tulsa,Oklahoma,63937
404,"Monahan, Conroy and Erdman",83 Acker Circle,Denver,Colorado,54276
405,Morissette-Haag,3 Heffernan Trail,Milwaukee,Wisconsin,29011
406,Hudson Inc,43 Farmco Pass,Tacoma,Washington,72751
407,Blanda-Satterfield,311 Longview Terrace,El Paso,Texas,93372
408,"White, Cremin and Renner",4444 Bobwhite Drive,Charleston,West Virginia,81335
409,Jacobi-Russel,483 1st Drive,Sioux City,Iowa,25510
410,Koelpin Inc,78 Forest Run Crossing,Cincinnati,Ohio,99085
411,Christiansen Group,79 Nancy Pass,Amarillo,Texas,28503
412,McCullough and Sons,952 Holmberg Way,Harrisburg,Pennsylvania,51812
413,Nienow Group,2 Esch Crossing,Detroit,Michigan,98326
414,Herzog Group,1487 Golf Course Center,Philadelphia,Pennsylvania,94695
415,"Friesen, Schoen and Schultz",76 Manley Hill,Newport Beach,California,66331
416,"Smitham, Fahey and Bogan",9 Schmedeman Avenue,Silver Spring,Maryland,53776
417,Heidenreich-Zieme,5 Lighthouse Bay Pass,San Antonio,Texas,71353
418,Koch-Corwin,056 Becker Pass,Zephyrhills,Florida,17827
419,"Lynch, Blick and Becker",89 Sachs Court,Decatur,Georgia,81649
420,"Mohr, D'Amore and Ruecker",293 Lake View Junction,Atlanta,Georgia,25564
421,Stoltenberg-Kris,8 Waywood Crossing,Fresno,California,19317
422,Dietrich Inc,3108 Mandrake Center,Beaverton,Oregon,60276
423,Gerhold Inc,67 Dottie Road,Monroe,Louisiana,94157
424,"Weimann, Purdy and Collins",768 Portage Plaza,El Paso,Texas,81388
425,"Will, Walter and Lemke",12778 High Crossing Drive,San Antonio,Texas,18900
426,Reynolds-Emard,9 Eastwood Plaza,Oklahoma City,Oklahoma,66013
427,Howell LLC,9 Fordem Junction,Sacramento,California,98139
428,Gaylord Group,721 Oakridge Plaza,Gatesville,Texas,89993
429,Borer Group,303 American Ash Junction,Topeka,Kansas,21864
430,Halvorson-Hahn,8811 Forest Dale Plaza,Charlotte,North Carolina,76729
431,Christiansen-Nikolaus,5921 Vernon Trail,Lees Summit,Missouri,61017
432,Hermiston-Grant,650 Goodland Crossing,Cincinnati,Ohio,10496
433,Shields Group,656 Vidon Drive,Savannah,Georgia,10294
434,Mills Group,11 Hudson Park,Cleveland,Ohio,30947
435,"White, Blanda and Rath",085 Mendota Point,Wilkes Barre,Pennsylvania,37280
436,"Lubowitz, Huel and Will",985 Mayer Trail,Dallas,Texas,51355
437,Howell Inc,78268 Dryden Place,Fort Wayne,Indiana,11126
438,Considine LLC,1 Loeprich Parkway,Naples,Florida,58652
439,Bayer LLC,37607 Forest Road,Macon,Georgia,23176
440,Hermann-Abernathy,95633 Walton Alley,Virginia Beach,Virginia,97309
441,"Brakus, Morissette and Bosco",31 Vernon Park,Bakersfield,California,73802
442,Murray LLC,807 Northridge Pass,Fairfax,Virginia,54211
443,Morar-O'Conner,5 Thierer Alley,Tacoma,Washington,60570
444,Turner Inc,9334 Dennis Crossing,Pittsburgh,Pennsylvania,38379
445,Christiansen Inc,69 Mitchell Street,Minneapolis,Minnesota,83448
446,Hauck and Sons,4829 Crescent Oaks Court,South Lake Tahoe,California,33940
447,Hammes Inc,31 Novick Way,Midland,Texas,31914
448,Crist Group,581 Melvin Road,Reston,Virginia,16614
449,"Runolfsdottir, Tremblay and Tremblay",27 Buhler Crossing,El Paso,Texas,49209
450,Johns Group,7109 Hovde Place,Roanoke,Virginia,43410
451,Turner and Sons,7999 Warner Junction,El Paso,Texas,94438
452,Boehm Group,363 Shasta Parkway,Kansas City,Missouri,82136
453,Brekke Inc,203 Myrtle Street,Providence,Rhode Island,55610
454,Runolfsson-Schoen,33760 Fremont Hill,Colorado Springs,Colorado,66083
455,Lehner-Hettinger,90 Aberg Junction,Peoria,Illinois,54626
456,Fisher-Rowe,6 Mendota Road,Fort Myers,Florida,63900
457,Wolff-Block,2 Randy Plaza,Wichita,Kansas,37609
458,Davis-Reichel,8 Union Hill,Miami,Florida,82646
459,"Bashirian, Schmeler and Nitzsche",30 Sundown Terrace,Clearwater,Florida,36139
460,Dietrich-Wintheiser,142 Huxley Point,Philadelphia,Pennsylvania,90981
461,Runte LLC,9968 Dahle Street,Houston,Texas,71823
462,"Heaney, Bailey and Greenfelder",6 1st Terrace,Anniston,Alabama,62574
463,Mohr-Lueilwitz,6 7th Parkway,Long Beach,California,26112
464,Monahan-Parker,358 Old Gate Circle,Cincinnati,Ohio,95239
465,Mraz LLC,2941 Rusk Avenue,Fort Wayne,Indiana,83132
466,Bahringer and Sons,20839 Doe Crossing Crossing,Dallas,Texas,13066
467,Rolfson Group,2 Lawn Parkway,Pensacola,Florida,29629
468,Beer Inc,83 Shopko Junction,Lincoln,Nebraska,58243
469,Rath Group,05 Saint Paul Circle,Amarillo,Texas,99845
470,"Lebsack, Smith and Reilly",92953 Corben Hill,Tulsa,Oklahoma,83093
471,Mosciski Inc,708 Moland Street,Indianapolis,Indiana,98884
472,Bernhard Inc,7518 Carpenter Court,Huntington,West Virginia,32934
473,"Williamson, Blanda and Wehner",0753 Manufacturers Pass,West Palm Beach,Florida,22807
474,Blick-McDermott,40170 Riverside Park,Houston,Texas,15836
475,Turcotte-Konopelski,08286 Ilene Trail,San Jose,California,64909
476,Bode-Brekke,9944 Killdeer Street,Los Angeles,California,84190
477,Gleason-Waelchi,470 Kingsford Park,Houston,Texas,44127
478,Rice and Sons,6 Raven Court,Crawfordsville,Indiana,12854
479,Marvin and Sons,9 Forest Drive,Shawnee Mission,Kansas,91336
480,"Russel, Johns and Kohler",28 Dawn Junction,Davenport,Iowa,77991
481,"Ullrich, Stoltenberg and Goldner",6 Brown Road,Plano,Texas,27763
482,"Wisozk, Christiansen and Bechtelar",2685 5th Hill,Orlando,Florida,52281
483,Reynolds-Eichmann,028 Dakota Pass,Abilene,Texas,52007
484,"Dach, Cummings and Reichert",15 David Junction,New Castle,Pennsylvania,61184
485,Fadel-Hodkiewicz,77 Independence Drive,Memphis,Tennessee,62585
486,"Hettinger, Reichel and Corkery",61288 La Follette Way,Miami,Florida,21372
487,"Nienow, Breitenberg and Baumbach",65264 Golf Trail,Pensacola,Florida,96120
488,"Metz, Kling and Grady",4893 Prentice Plaza,Sacramento,California,52391
489,Grady Inc,1455 Kropf Park,Chicago,Illinois,42300
490,"Rice, Conroy and Mills",74 Fuller Drive,New York City,New York,83665
491,"Bogan, Keeling and Kemmer",9559 Graedel Court,Reston,Virginia,29566
492,Murphy-Dibbert,8 Lukken Pass,Dallas,Texas,64317
493,Balistreri and Sons,812 Eagle Crest Park,Boise,Idaho,96752
494,Becker LLC,63051 Burning Wood Pass,Newport News,Virginia,27029
495,Pfannerstill-Considine,39 Mccormick Trail,Palatine,Illinois,21142
496,Kuphal LLC,72100 Sauthoff Pass,El Paso,Texas,57825
497,Stiedemann-Sanford,57351 Jana Terrace,Stockton,California,48834
498,"Bartoletti, Spinka and Robel",1082 Vernon Plaza,Naples,Florida,23032
499,Murray and Sons,50 Dahle Junction,Washington,DC,42971
500,"Grant, Stracke and Bosco",1710 Tony Terrace,Alexandria,Virginia,75281
501,Konopelski Group,57981 Old Gate Plaza,Madison,Wisconsin,47395
502,"Dicki, Volkman and Kerluke",5 International Pass,Fort Lauderdale,Florida,59622
503,"Collier, Orn and Lindgren",24673 Morningstar Terrace,Seattle,Washington,29642
504,Rau-Nicolas,51240 Mosinee Alley,Las Vegas,Nevada,91271
505,Wiegand Group,933 Oneill Terrace,Houston,Texas,83496
506,Cole-Toy,005 Bunting Plaza,Fullerton,California,15834
507,Hamill LLC,57761 Center Way,Plano,Texas,91830
508,"Wunsch, Stanton and Larson",8 Warrior Avenue,Lafayette,Louisiana,30007
509,"Morissette, Ebert and Bosco",3215 Coolidge Hill,Hialeah,Florida,59294
510,Crooks Group,89733 Crowley Way,Palo Alto,California,78166
511,"Blick, Christiansen and Turcotte",58 Washington Terrace,Topeka,Kansas,57931
512,Tillman-Tillman,53 Straubel Pass,Phoenix,Arizona,69695
513,"Durgan, Aufderhar and Grady",70802 Springs Street,Gary,Indiana,66259
514,West-Bahringer,7 Mallard Terrace,Portland,Oregon,64686
515,Romaguera and Sons,4 Nelson Junction,Brooklyn,New York,89251
516,Effertz Inc,4788 Goodland Park,Savannah,Georgia,87972
517,Green-Thompson,21 Farragut Street,Peoria,Illinois,63842
518,"Dicki, Christiansen and Gorczany",5 Sauthoff Road,Savannah,Georgia,32102
519,Streich and Sons,48456 Del Mar Court,New Haven,Connecticut,15716
520,Dicki LLC,5687 Toban Parkway,Newport News,Virginia,25947
521,Herzog-Eichmann,777 Golf View Avenue,Saint Louis,Missouri,54221
522,Boehm-Schumm,68 Pankratz Way,Memphis,Tennessee,82277
523,Greenfelder-Doyle,16 Alpine Parkway,Atlanta,Georgia,40740
524,"Mueller, Grant and Koss",51486 Blaine Way,Greenville,South Carolina,15569
525,Hand-O'Hara,8280 Crescent Oaks Terrace,Milwaukee,Wisconsin,46713
526,"Sporer, Green and Schaden",3 Dryden Way,Cleveland,Ohio,34822
527,Huels-Pacocha,0 Sloan Way,Houston,Texas,27639
528,"Bogan, Mosciski and Wintheiser",6281 Nancy Point,Columbia,South Carolina,93785
529,"Kshlerin, Rohan and Feeney",579 Brickson Park Terrace,San Diego,California,14929
530,Kuvalis Group,29437 Dahle Road,Harrisburg,Pennsylvania,48166
531,Abshire and Sons,723 Eliot Point,Washington,DC,10167
532,"Friesen, Treutel and Lehner",4190 American Crossing,Buffalo,New York,46094
533,"Monahan, Farrell and Mann",11 Londonderry Hill,Dallas,Texas,21578
534,"Wiegand, Walsh and Beier",4 Dixon Street,Las Vegas,Nevada,72941
535,"Buckridge, McClure and Reinger",5445 Acker Hill,Los Angeles,California,41787
536,"Bradtke, MacGyver and Gottlieb",0279 Redwing Parkway,New York City,New York,99110
537,"Gulgowski, Jast and Paucek",54 Drewry Way,Charlotte,North Carolina,83038
538,Lind-Johnston,02 Browning Road,Saint Paul,Minnesota,45067
539,"Wisoky, Becker and Pacocha",90 Golf View Hill,Henderson,Nevada,81549
540,Jacobs and Sons,81 Delladonna Drive,Philadelphia,Pennsylvania,32281
541,Kling Inc,3 Pond Plaza,Houston,Texas,78087
542,Muller Group,26 Melvin Park,Norwalk,Connecticut,63086
543,"Haag, Herman and Armstrong",8 Melvin Road,Dallas,Texas,29362
544,Weber Inc,2372 Iowa Hill,Sacramento,California,87367
545,Kautzer Inc,9 Sunbrook Drive,Fort Smith,Arkansas,83332
546,Pacocha and Sons,05172 Atwood Lane,Las Vegas,Nevada,69639
547,Corkery-Marquardt,576 Lakeland Street,Washington,DC,69232
548,Pouros-Thiel,321 Petterle Parkway,Kansas City,Missouri,61294
549,Smitham LLC,9423 Union Parkway,Orlando,Florida,42996
550,Ebert-Bergnaum,1013 Gerald Lane,Norfolk,Virginia,81045
551,"Gutkowski, Hahn and Lesch",0748 Merrick Avenue,Dallas,Texas,23698
552,Rau and Sons,31531 Towne Road,Denver,Colorado,27307
553,"Dach, Mohr and Halvorson",0 Bowman Pass,Chicago,Illinois,30339
554,"Weimann, Cartwright and Cronin",5 Canary Lane,East Saint Louis,Illinois,77817
555,"Kessler, Herman and Ortiz",112 Arizona Circle,Birmingham,Alabama,66542
556,Gleason LLC,94 Longview Parkway,Tallahassee,Florida,87272
557,Koelpin Inc,24926 Kenwood Road,Young America,Minnesota,16406
558,"Rosenbaum, Mills and Marquardt",064 Almo Pass,Sioux City,Iowa,54640
559,Krajcik Group,9 Waubesa Circle,Springfield,Illinois,36742
560,"Fritsch, Sauer and Beahan",4585 Tomscot Junction,Dallas,Texas,46789
561,Price Inc,18 Golf Course Hill,Pittsburgh,Pennsylvania,35043
562,Bradtke-Flatley,53 Hoffman Alley,San Diego,California,68170
563,O'Keefe LLC,93 Roxbury Court,Macon,Georgia,42252
564,"McCullough, Nienow and O'Connell",8 Lien Crossing,Los Angeles,California,58013
565,"Bins, Wisozk and Wunsch",919 Rigney Terrace,Albany,New York,28557
566,Erdman-Schmitt,40045 Mayfield Alley,Spokane,Washington,83740
567,Gusikowski LLC,42 Petterle Drive,Boise,Idaho,15232
568,Weber-Olson,94 Pearson Street,Louisville,Kentucky,19125
569,Kutch-Harris,21 Raven Junction,Oklahoma City,Oklahoma,46387
570,Bernhard-Smitham,28 Banding Road,Shawnee Mission,Kansas,26693
571,Davis Group,12 Dorton Avenue,Washington,DC,82154
572,Pagac-Mayert,7 Memorial Pass,El Paso,Texas,15997
573,"Ebert, Okuneva and Skiles",0262 Scoville Lane,Wichita,Kansas,45796
574,Wuckert Group,3540 Mifflin Lane,Vancouver,Washington,99662
575,Wiegand-MacGyver,5468 Green Court,New York City,New York,18302
576,"Considine, Rodriguez and Heathcote",590 Westerfield Court,Irvine,California,36690
577,VonRueden Group,832 Montana Pass,Tampa,Florida,49034
578,Aufderhar LLC,3487 Corben Center,Lakeland,Florida,88525
579,Runte-Barton,37 Victoria Avenue,Brooksville,Florida,14235
580,Rogahn Group,17514 Ronald Regan Terrace,Phoenix,Arizona,32097
581,"Paucek, Roberts and Feil",8788 Eagle Crest Point,Arlington,Texas,61742
582,"Rolfson, Corkery and Douglas",81 Sutteridge Pass,New Haven,Connecticut,69738
583,Rippin-Huels,16899 Eagle Crest Parkway,Seattle,Washington,79233
584,"Nolan, Fahey and Stracke",0 Stephen Trail,Cumming,Georgia,57018
585,Lueilwitz-Gusikowski,08 Toban Court,Scranton,Pennsylvania,25817
586,Mohr Group,5561 Lighthouse Bay Road,Colorado Springs,Colorado,60792
587,Schmidt-Littel,441 Springs Circle,Pasadena,California,47179
588,Stiedemann Group,7 Stephen Crossing,Jamaica,New York,12634
589,"Lakin, Nolan and Jacobs",238 Spohn Drive,Pittsburgh,Pennsylvania,56279
590,"Prohaska, Schinner and Purdy",22 Warbler Crossing,Buffalo,New York,89602
591,Olson-Heller,52 Sunfield Way,Fort Lauderdale,Florida,47800
592,Ondricka-Hagenes,28 La Follette Lane,Oklahoma City,Oklahoma,98536
593,Kertzmann LLC,7 Clyde Gallagher Lane,Washington,DC,82235
594,King-Mertz,9455 Iowa Alley,San Jose,California,30639
595,Mayer-Abernathy,53 Declaration Street,Spokane,Washington,96362
596,Sipes-Nienow,76 Myrtle Way,Miami,Florida,48131
597,"Wisozk, Hand and Grimes",75 Sauthoff Plaza,Saint Petersburg,Florida,38355
598,"Harber, Blanda and Herzog",40055 Sherman Junction,Charleston,South Carolina,23154
599,Auer Inc,511 Colorado Street,Baton Rouge,Louisiana,22401
600,Dickens-Kulas,636 Bultman Park,Boise,Idaho,59783
601,Steuber and Sons,50939 International Way,El Paso,Texas,45443
602,Watsica LLC,898 Talmadge Road,Colorado Springs,Colorado,70109
603,"Denesik, Bosco and Champlin",497 Brown Junction,San Antonio,Texas,30557
604,Cummerata Group,2 Mosinee Point,Atlanta,Georgia,67308
605,Stehr LLC,5471 Hayes Court,Baltimore,Maryland,87910
606,Cormier Group,228 Old Gate Alley,Tacoma,Washington,46945
607,"Muller, Tremblay and Kohler",18 Kensington Street,San Francisco,California,37539
608,"Waters, Dibbert and D'Amore",9 Ryan Trail,Tampa,Florida,78729
609,Dare Group,0 Thompson Court,Yonkers,New York,12834
610,Lowe-Kilback,40 Montana Way,Atlanta,Georgia,49518
611,King LLC,79 Del Sol Circle,Lubbock,Texas,30680
612,Hills-Thiel,7 Esker Point,Rockford,Illinois,82759
613,Luettgen Inc,0 Blackbird Parkway,Columbus,Georgia,22168
614,Krajcik and Sons,42 Merchant Court,New Haven,Connecticut,16419
615,"Wilkinson, Franecki and Witting",82409 Loomis Lane,Richmond,Virginia,92411
616,Christiansen and Sons,1 Jenna Drive,London,Kentucky,41498
617,"Raynor, Will and Howe",303 Kropf Way,Montgomery,Alabama,43326
618,Lang LLC,0992 Dottie Trail,Bradenton,Florida,47328
619,"Gottlieb, Bins and Ankunding",335 Jay Way,Mobile,Alabama,18058
620,"Effertz, Metz and Rolfson",962 Briar Crest Alley,Billings,Montana,83289
621,Harvey-Lesch,9 Green Ridge Place,Petaluma,California,30000
622,Schimmel Inc,305 Mccormick Terrace,Rochester,New York,53799
623,Doyle-Moen,54 Hanson Avenue,Atlanta,Georgia,19642
624,Mertz-Effertz,8722 Truax Center,Dallas,Texas,59804
625,"Purdy, Huel and Kuhic",04269 Emmet Park,Irvine,California,54270
626,"Pacocha, Mayert and Bergstrom",560 Sommers Terrace,Los Angeles,California,33099
627,"Mosciski, Ledner and Cronin",0079 Redwing Way,Appleton,Wisconsin,68948
628,Runte-Beer,56615 Grasskamp Road,Norwalk,Connecticut,51642
629,Hermiston LLC,98 Golf Crossing,Escondido,California,78459
630,"Rosenbaum, Veum and Jakubowski",8 Donald Place,Augusta,Georgia,30787
631,Harvey and Sons,731 Golf View Street,Valley Forge,Pennsylvania,22500
632,"Rogahn, Heller and Ward",14554 School Way,Toledo,Ohio,20255
633,"Buckridge, McDermott and Ebert",18223 Red Cloud Pass,San Angelo,Texas,93451
634,Kuhlman-Morissette,44702 Thompson Trail,Akron,Ohio,28798
635,Nikolaus and Sons,53039 Sheridan Circle,Fort Myers,Florida,70705
636,Bartell-Altenwerth,8 Scofield Junction,Charlotte,North Carolina,68713
637,"Will, Auer and Wuckert",4 Golden Leaf Alley,Madison,Wisconsin,69292
638,Sporer Inc,5 Victoria Pass,Wichita,Kansas,44120
639,"Beahan, Moore and Tremblay",832 Moland Point,Levittown,Pennsylvania,41918
640,Murazik-Kiehn,62396 Hazelcrest Drive,Shawnee Mission,Kansas,76430
641,"Bruen, Leuschke and Goldner",43104 Di Loreto Pass,Pasadena,California,90328
642,Cummings-Hilll,435 North Circle,Minneapolis,Minnesota,50545
643,"Stroman, Gerlach and Mohr",07887 Bunker Hill Point,Phoenix,Arizona,67471
644,Yundt and Sons,5 Darwin Hill,Sparks,Nevada,68814
645,Heathcote-Leannon,1955 Buhler Street,Saint Paul,Minnesota,94953
646,Cartwright Group,229 Pepper Wood Plaza,Visalia,California,76141
647,"White, Considine and Runolfsdottir",5 Fordem Avenue,Reno,Nevada,10447
648,Armstrong LLC,6 Sutherland Road,Great Neck,New York,55641
649,Wehner-Huels,1991 Northport Park,Ogden,Utah,81867
650,Schimmel LLC,3 Onsgard Alley,Tulsa,Oklahoma,72005
651,Morissette and Sons,7024 Orin Street,Saint Petersburg,Florida,94124
652,"Wisozk, Watsica and Bernhard",048 Glendale Way,Little Rock,Arkansas,51982
653,Stracke-Mosciski,20137 Sheridan Park,El Paso,Texas,54742
654,"Yundt, O'Keefe and Larkin",91107 Melvin Trail,Roanoke,Virginia,98313
655,Harris Group,094 Reindahl Alley,Oklahoma City,Oklahoma,18723
656,Hodkiewicz-Johnson,70 5th Center,Trenton,New Jersey,78245
657,"Sanford, Toy and Waelchi",7953 Westport Place,Washington,DC,50304
658,"Schneider, Heathcote and Toy",96612 Evergreen Alley,Bloomington,Illinois,83880
659,Ondricka LLC,140 Stone Corner Plaza,Bakersfield,California,91857
660,Kunde and Sons,33936 Carberry Junction,Davenport,Iowa,84436
661,Goyette-Pfeffer,1 Oak Valley Way,Columbia,South Carolina,37732
662,"Beer, Abernathy and Hermiston",820 Sundown Parkway,Houston,Texas,47640
663,Hayes Group,32128 Tomscot Plaza,Jackson,Mississippi,96978
664,Miller and Sons,5 Walton Lane,Chicago,Illinois,86782
665,Romaguera and Sons,18 Logan Place,Santa Monica,California,79453
666,Halvorson Inc,121 Declaration Court,Pittsburgh,Pennsylvania,23942
667,Prosacco-Nienow,34847 Florence Circle,Mobile,Alabama,79605
668,Howe and Sons,96533 Cottonwood Junction,Erie,Pennsylvania,14114
669,Nikolaus LLC,9 Hudson Hill,Homestead,Florida,64884
670,Rempel-Durgan,94089 Barby Parkway,Erie,Pennsylvania,52038
671,"Bayer, Williamson and Collins",691 8th Parkway,Minneapolis,Minnesota,51282
672,"Quitzon, Hagenes and Douglas",7784 Springs Road,Kingsport,Tennessee,90144
673,Treutel Inc,2 Buena Vista Point,Boise,Idaho,45327
674,Cruickshank-Bosco,8 Oneill Point,Kansas City,Missouri,15331
675,"Wunsch, Anderson and Reichel",4881 Grover Crossing,Winston Salem,North Carolina,67781
676,Veum-Bradtke,3 Warbler Road,Newport Beach,California,81935
677,Russel LLC,7 Kenwood Avenue,Newark,Delaware,38657
678,"Daniel, Treutel and Stokes",84 Browning Terrace,Houston,Texas,92930
679,"Marks, Langosh and Parisian",9 4th Center,Baltimore,Maryland,50780
680,Considine-Leffler,23 Sachtjen Circle,Largo,Florida,56565
681,Simonis-Fisher,74 Dryden Park,Paterson,New Jersey,45569
682,"Ondricka, Cartwright and Bartell",40691 David Point,Fresno,California,24702
683,"Morar, Grady and Reichel",21582 Boyd Point,Rochester,New York,95770
684,"Satterfield, Homenick and Stiedemann",30848 Summer Ridge Point,Indianapolis,Indiana,27433
685,"Runolfsdottir, Cole and Jones",71462 Darwin Avenue,Buffalo,New York,15153
686,Frami-Wisozk,48680 Mcbride Plaza,Houston,Texas,32602
687,Kunze Inc,1070 Bay Point,Indianapolis,Indiana,60186
688,Halvorson and Sons,692 Dexter Trail,Lancaster,Pennsylvania,55659
689,Lakin Inc,4 Melvin Circle,Akron,Ohio,39814
690,Swaniawski LLC,5 5th Pass,Jackson,Mississippi,41840
691,Douglas LLC,701 Cardinal Center,Louisville,Kentucky,55352
692,Kihn Group,30717 Buena Vista Alley,Grand Rapids,Michigan,63019
693,Quigley Inc,20520 Sommers Point,Tampa,Florida,14606
694,Mosciski-Gerlach,70 Gale Pass,Winston Salem,North Carolina,58144
695,"Padberg, Lindgren and Kessler",12 Toban Street,Charleston,West Virginia,37541
696,Roberts-Rice,02591 Summerview Park,Tampa,Florida,58262
697,"O'Reilly, Runolfsson and Ledner",79726 Pleasure Place,Las Vegas,Nevada,25531
698,Rodriguez and Sons,5 Fairfield Pass,Las Vegas,Nevada,29506
699,Wisoky-Pfannerstill,30 Mayfield Junction,Cincinnati,Ohio,29739
700,Wolf-Davis,16 Sutherland Road,Tampa,Florida,58736
701,Bernhard-Veum,0743 Packers Drive,Atlanta,Georgia,55470
702,Konopelski Inc,46218 Mesta Way,Silver Spring,Maryland,83285
703,O'Connell-Cormier,99744 Dayton Street,Louisville,Kentucky,50541
704,Lehner LLC,141 Birchwood Terrace,El Paso,Texas,47797
705,"Kuhlman, Jast and Wehner",2 Summerview Park,Phoenix,Arizona,31749
706,Douglas-Schroeder,6503 2nd Pass,Louisville,Kentucky,30052
707,Quitzon-Satterfield,8516 Northwestern Parkway,Saint Louis,Missouri,13659
708,Weissnat LLC,42740 Dennis Way,Atlanta,Georgia,52779
709,Hammes-Bernhard,031 Fair Oaks Trail,New Bedford,Massachusetts,42192
710,"King, Hills and Rowe",32082 Kedzie Pass,Atlanta,Georgia,17395
711,"Ziemann, Beatty and Block",5418 Garrison Hill,Cincinnati,Ohio,32924
712,Keebler-Kulas,1 West Road,Beaufort,South Carolina,79653
713,Botsford-Douglas,9667 Mitchell Alley,El Paso,Texas,27089
714,Murazik-Moen,271 Amoth Way,Ridgely,Maryland,40189
715,Kertzmann and Sons,04 Crownhardt Parkway,Jamaica,New York,14224
716,"Emard, Kassulke and Miller",61 Mayfield Avenue,Corona,California,58274
717,Windler-Stracke,639 Fairfield Lane,Philadelphia,Pennsylvania,23888
718,Weber and Sons,82 Rieder Lane,Brooklyn,New York,54540
719,Roberts Inc,417 Farwell Crossing,Asheville,North Carolina,40432
720,"O'Reilly, Sauer and Kautzer",88927 Jana Plaza,Akron,Ohio,13123
721,"Thiel, Treutel and Johnston",18 Lyons Circle,Washington,DC,27419
722,Hauck-Bahringer,1341 Reindahl Way,Nashville,Tennessee,11285
723,Bashirian-Waters,941 Veith Way,Huntington,West Virginia,81356
724,Treutel LLC,79 Hauk Avenue,Jacksonville,Florida,83813
725,"Kemmer, Bogan and Rodriguez",4 Beilfuss Junction,Fort Worth,Texas,97677
726,Lebsack-Toy,48098 Lunder Hill,Port Washington,New York,42554
727,Gleason Inc,82 Forest Dale Lane,Richmond,Virginia,60985
728,Cartwright LLC,7 Londonderry Alley,Los Angeles,California,55624
729,Sanford-Collins,38334 School Crossing,Annapolis,Maryland,22882
730,Hirthe-Grant,9 Anderson Court,Buffalo,New York,56982
731,Price-Hagenes,2 Crownhardt Crossing,Akron,Ohio,67632
732,"Green, O'Hara and Heller",4583 Rockefeller Place,Indianapolis,Indiana,98422
733,Roberts-VonRueden,74278 Randy Trail,Akron,Ohio,81765
734,Weissnat-Dickens,8940 Service Park,Tulsa,Oklahoma,76821
735,Kovacek Inc,14 Karstens Trail,Dallas,Texas,98606
736,"Schimmel, Rice and Kuhn",8270 Lindbergh Crossing,Cleveland,Ohio,59695
737,"Rath, Bartell and Nader",568 Nobel Drive,Warren,Michigan,93363
738,Jerde-Shields,7206 Heath Road,South Bend,Indiana,52937
739,"Stehr, Sauer and Rolfson",2396 Carey Court,Evansville,Indiana,29920
740,Mraz Group,48 Iowa Place,El Paso,Texas,44768
741,Schmeler-Grimes,71 Sommers Way,Tallahassee,Florida,14221
742,Marquardt and Sons,5696 Monica Way,Minneapolis,Minnesota,65355
743,Wolff Group,74388 Kipling Park,Omaha,Nebraska,96228
744,Stark-Christiansen,150 Dottie Center,Honolulu,Hawaii,32561
745,Hackett LLC,54591 Sycamore Terrace,Lawrenceville,Georgia,76133
746,Kling-Lind,135 Center Junction,San Antonio,Texas,24144
747,Kreiger Group,43126 Mesta Lane,Las Vegas,Nevada,40521
748,Stiedemann Group,709 Carberry Circle,Philadelphia,Pennsylvania,75850
749,"Reichel, Bogisich and Walker",1276 Quincy Circle,Beaumont,Texas,96390
750,Yost Inc,5 Prentice Road,Sterling,Virginia,24213
751,"Herzog, Bergstrom and Wolff",313 Moland Parkway,Washington,DC,58330
752,"Gerhold, Beahan and Konopelski",8 Sycamore Court,Arlington,Virginia,53284
753,Bernhard-Gaylord,6763 Golden Leaf Plaza,Houston,Texas,80967
754,Prosacco LLC,79514 Iowa Place,Chicago,Illinois,94938
755,"Ledner, Green and Lubowitz",2 Iowa Trail,Arlington,Texas,25800
756,Marks-Graham,3481 Montana Circle,Austin,Texas,41875
757,Kulas-Hackett,97153 Browning Avenue,Mountain View,California,50634
758,"Leuschke, Williamson and Hansen",8999 Esker Terrace,Washington,DC,34022
759,Gleichner Group,631 Troy Point,Miami,Florida,65408
760,Lehner Group,050 Brickson Park Circle,Honolulu,Hawaii,23757
761,"Lehner, West and Heaney",2130 Anzinger Avenue,Roanoke,Virginia,10218
762,"Dickinson, Veum and Glover",0653 Bayside Parkway,Jackson,Mississippi,65614
763,Hartmann-Hahn,90 Dahle Way,Arlington,Virginia,93625
764,"Huel, Dibbert and Crona",80431 American Trail,Duluth,Georgia,49423
765,"Mraz, Hickle and Terry",454 Lerdahl Trail,College Station,Texas,79135
766,"Waters, Herman and Dietrich",36 Del Sol Junction,Tucson,Arizona,92466
767,Flatley-Pouros,64305 Oak Valley Park,New York City,New York,16002
768,"Rosenbaum, Hickle and Dach",86950 Sachtjen Junction,Sacramento,California,76860
769,"Wehner, Wilderman and Stark",67664 Spaight Park,Las Vegas,Nevada,12240
770,"Bechtelar, Dickens and Greenholt",86 Northland Avenue,Salt Lake City,Utah,51082
771,Hackett-Walker,2155 Warner Place,Pompano Beach,Florida,55601
772,Beahan-Towne,1 Scofield Alley,Pittsburgh,Pennsylvania,67718
773,Johnston-Borer,00749 Anhalt Lane,Santa Barbara,California,91926
774,Jast Group,509 Bluestem Terrace,Arlington,Texas,56315
775,Hegmann LLC,18569 Norway Maple Plaza,Indianapolis,Indiana,75446
776,"Huel, Connelly and Lindgren",65 Straubel Court,Orlando,Florida,17026
777,"Erdman, Hills and Lynch",6 Lunder Trail,Newton,Massachusetts,64339
778,Tillman-Reynolds,664 Waywood Street,Anderson,South Carolina,24482
779,Harris Inc,10160 Rutledge Court,Columbus,Ohio,73900
780,Cassin-Greenfelder,425 Macpherson Place,Honolulu,Hawaii,50053
781,"Wisozk, Schimmel and Keebler",5 Oak Road,San Antonio,Texas,74204
782,"Brown, Kozey and Schneider",63392 Mayfield Center,Wilkes Barre,Pennsylvania,55886
783,Bayer Group,925 Lawn Terrace,El Paso,Texas,63059
784,Walter-Rippin,49040 Tony Terrace,Spokane,Washington,99083
785,"Wyman, Prosacco and Schuster",6 Melody Court,Oxnard,California,82078
786,Mante Inc,6 Mandrake Terrace,New Orleans,Louisiana,19356
787,Effertz Group,61 Northport Center,Clearwater,Florida,44394
788,Kuhic and Sons,5226 Kim Pass,Columbia,Missouri,47399
789,Buckridge-Green,2 Marquette Point,El Paso,Texas,46745
790,Schmeler-Schaefer,78 Burrows Court,Boulder,Colorado,68929
791,Schroeder LLC,5 Gerald Center,Carol Stream,Illinois,67958
792,"Kirlin, Bergnaum and Medhurst",418 Lyons Junction,Albany,New York,85611
793,Wunsch and Sons,01 Butternut Plaza,Carson City,Nevada,13335
794,"Hartmann, Rath and Daugherty",89 Continental Alley,Bronx,New York,25434
795,Mitchell Group,03166 Kim Avenue,Washington,DC,79948
796,Will-Shields,72 Westend Plaza,Carol Stream,Illinois,14103
797,Lemke-Stoltenberg,39933 Lotheville Hill,Rockford,Illinois,93134
798,"Lebsack, Hodkiewicz and Jacobi",9101 Hovde Plaza,Wichita,Kansas,84149
799,Bailey and Sons,343 Hagan Parkway,San Diego,California,33021
800,Bogisich-Herman,66 Elgar Avenue,Raleigh,North Carolina,19973
801,"Hirthe, Feest and Fahey",81845 Kropf Alley,Boise,Idaho,76079
802,"Beer, Morar and Hartmann",24724 Fremont Road,Glendale,California,12128
803,Krajcik-Schaden,3 Eggendart Point,Albuquerque,New Mexico,28550
804,"Crona, Hand and Marks",64206 Forster Plaza,Philadelphia,Pennsylvania,60532
805,Kunde Inc,1712 Lakeland Parkway,Los Angeles,California,85310
806,Russel-Bartell,0086 Eagle Crest Trail,Charlotte,North Carolina,19676
807,"Conn, Larkin and Watsica",4628 Anderson Trail,Houston,Texas,24889
808,Fritsch LLC,796 Del Mar Alley,Tallahassee,Florida,43205
809,Lindgren-Spinka,1877 Arkansas Drive,Buffalo,New York,29335
810,Nitzsche-Conroy,64 Dawn Alley,Fort Worth,Texas,47132
811,Crona-Pfannerstill,00572 Corben Trail,San Francisco,California,32088
812,Bartoletti Group,74 Southridge Way,North Hollywood,California,20042
813,Little Inc,31904 Linden Terrace,Philadelphia,Pennsylvania,21790
814,Schuppe and Sons,702 Loftsgordon Lane,Detroit,Michigan,77119
815,Cruickshank-Schumm,90 Texas Court,Brooklyn,New York,61215
816,Donnelly and Sons,10 Anzinger Court,Baltimore,Maryland,42674
817,Stiedemann and Sons,848 Toban Avenue,Saint Louis,Missouri,85471
818,Hahn Group,2230 Anniversary Way,Panama City,Florida,70986
819,Crooks Group,67169 Bunting Road,Fullerton,California,50123
820,Emmerich-Herman,39143 Prairieview Avenue,Fullerton,California,84803
821,Carroll Group,2 Chive Court,Phoenix,Arizona,12528
822,Spinka-Johnston,944 Hintze Crossing,Spartanburg,South Carolina,55835
823,Schulist and Sons,75 Sauthoff Center,Miami,Florida,77108
824,"Medhurst, Gibson and Kertzmann",734 Burning Wood Street,Ann Arbor,Michigan,53970
825,Wisozk Inc,3 Maywood Avenue,Grand Rapids,Michigan,61906
826,"Waelchi, Hauck and Adams",6851 Tennessee Parkway,Erie,Pennsylvania,65321
827,"Russel, Schimmel and Gulgowski",76739 Armistice Circle,Salt Lake City,Utah,11812
828,"Beer, Kirlin and Tromp",348 Tomscot Crossing,Pensacola,Florida,86630
829,Crooks-Kuphal,34 Butternut Parkway,Las Vegas,Nevada,52204
830,Kulas LLC,8351 Schurz Place,York,Pennsylvania,51387
831,"Beer, Willms and Botsford",359 John Wall Lane,Reading,Pennsylvania,75074
832,Champlin-Runolfsdottir,1 Brown Pass,Columbus,Georgia,55075
833,Mitchell-Bartell,3981 Briar Crest Park,Lansing,Michigan,57990
834,"Spencer, Von and Ortiz",05 Heffernan Alley,Meridian,Mississippi,97965
835,Fritsch-Watsica,1505 Carberry Way,Memphis,Tennessee,99603
836,"Littel, Bogan and Hyatt",87166 Scott Court,Aurora,Colorado,70295
837,Bogisich-Johnston,32 Melby Road,Lancaster,Pennsylvania,76655
838,Crist Group,591 Corscot Lane,Richmond,Virginia,18554
839,"Waters, Klocko and Mosciski",04 Village Green Crossing,Pensacola,Florida,11154
840,Little Inc,967 Lighthouse Bay Way,College Station,Texas,58202
841,Beatty-Brakus,47 Coleman Alley,Saint Cloud,Minnesota,85910
842,"Sanford, Purdy and Kuhlman",5293 Shelley Plaza,Aiken,South Carolina,87482
843,Bartoletti Group,967 Acker Park,Charlotte,North Carolina,33453
844,Nicolas-Zieme,35 Rieder Park,Memphis,Tennessee,37259
845,Orn and Sons,71204 Spenser Circle,Orlando,Florida,93970
846,Oberbrunner-Kihn,9 Lillian Plaza,Anderson,South Carolina,17220
847,Feeney Inc,610 Golf Drive,Birmingham,Alabama,59507
848,Dietrich Group,41186 Marcy Center,Richmond,Virginia,23316
849,"Homenick, Gleason and Emmerich",7346 Golf Course Drive,Miami,Florida,21595
850,Hermann-Green,500 Corscot Parkway,Greensboro,North Carolina,54275
851,Nikolaus Inc,83561 Center Pass,Hartford,Connecticut,93526
852,Schuppe-Veum,4946 Tomscot Circle,Salt Lake City,Utah,80694
853,Swaniawski-Reinger,025 Memorial Circle,Flint,Michigan,20706
854,Steuber and Sons,47 Ohio Way,Anaheim,California,34839
855,"Bartoletti, Johnston and Krajcik",4 Comanche Park,Denton,Texas,49130
856,Aufderhar Group,58967 Ohio Plaza,Lynn,Massachusetts,77336
857,Lindgren Inc,5 Loeprich Hill,Shreveport,Louisiana,49976
858,Heidenreich and Sons,2345 Grayhawk Alley,Cleveland,Ohio,85013
859,"Pouros, Bruen and Lubowitz",5 Upham Plaza,Cincinnati,Ohio,50701
860,Bahringer Inc,69399 Oak Valley Street,Murfreesboro,Tennessee,67149
861,Bednar LLC,6539 Granby Crossing,Oklahoma City,Oklahoma,16120
862,Marquardt Inc,43791 Merrick Alley,Shawnee Mission,Kansas,57498
863,Harber-O'Kon,5 Debs Terrace,Tacoma,Washington,75781
864,Kling LLC,3702 Utah Court,Rochester,New York,98469
865,"Pfannerstill, Ziemann and VonRueden",17438 Buell Lane,Seattle,Washington,37754
866,Nikolaus-Zemlak,34 Thierer Parkway,Memphis,Tennessee,24547
867,"McClure, Weissnat and Quigley",34870 Crownhardt Junction,Phoenix,Arizona,30382
868,Heaney Group,94 Huxley Park,Pittsburgh,Pennsylvania,79750
869,Abernathy and Sons,16710 Vermont Place,Atlanta,Georgia,27339
870,Tillman Group,3 Warrior Point,Minneapolis,Minnesota,70181
871,Hoeger and Sons,20470 Rigney Way,Tulsa,Oklahoma,14689
872,Langworth LLC,67472 Canary Circle,Spring,Texas,93470
873,Larson Inc,74625 5th Avenue,Chicago,Illinois,65512
874,Bergnaum and Sons,237 Elgar Parkway,Las Vegas,Nevada,21862
875,"Thompson, Parisian and Fahey",03 Old Gate Place,Topeka,Kansas,31422
876,Wiza-Feeney,31284 Harper Terrace,Hayward,California,30188
877,Herzog-Denesik,5917 Porter Alley,San Antonio,Texas,35840
878,Robel-Schmitt,92 Ludington Park,Springfield,Illinois,31530
879,Bosco Group,48013 Mitchell Junction,Charlotte,North Carolina,74200
880,"Lowe, Nikolaus and Hermann",7 Northridge Trail,Macon,Georgia,66431
881,Hickle and Sons,05085 Riverside Point,Panama City,Florida,45219
882,Daniel-Zieme,64453 Victoria Junction,New York City,New York,56522
883,Balistreri-Hartmann,025 Elka Hill,Norfolk,Virginia,54234
884,"Price, Bayer and Bechtelar",17 Prairie Rose Terrace,Indianapolis,Indiana,12088
885,Harvey-Cole,39 Hazelcrest Alley,Miami,Florida,12946
886,Beahan-Hoeger,0 Blaine Drive,Lakeland,Florida,22211
887,"Parker, Hermiston and Windler",11828 Transport Trail,Salt Lake City,Utah,22272
888,Casper-Cronin,31 Melvin Pass,Redwood City,California,64350
889,"Bashirian, Mann and Prosacco",75398 Esker Trail,Austin,Texas,47623
890,"Waelchi, Daniel and Dach",5545 Pankratz Avenue,Phoenix,Arizona,22563
891,Gusikowski LLC,54600 Hintze Way,Minneapolis,Minnesota,17267
892,Smitham-Purdy,5 Cottonwood Center,Meridian,Mississippi,73971
893,Blick-Waters,9 Westerfield Junction,San Francisco,California,89369
894,Rowe Group,58 Shopko Point,Battle Creek,Michigan,61476
895,"Haley, Fahey and Sawayn",070 Dawn Pass,Wichita Falls,Texas,58877
896,Pfeffer and Sons,033 Stang Trail,New Orleans,Louisiana,99082
897,Prosacco-Heathcote,4193 Hovde Parkway,Lake Charles,Louisiana,91152
898,Jaskolski Group,8116 Maryland Junction,Alexandria,Virginia,71413
899,Yundt-Russel,6 Browning Road,Spartanburg,South Carolina,38109
900,Bayer Inc,69 Iowa Circle,Fairbanks,Alaska,91998
901,Kreiger Group,139 East Trail,Oklahoma City,Oklahoma,39129
902,"Ziemann, Metz and Blick",83910 Straubel Plaza,Bethlehem,Pennsylvania,47414
903,Rippin-Smitham,7244 Holy Cross Court,Indianapolis,Indiana,97887
904,Thompson-Shanahan,840 Ronald Regan Parkway,Harrisburg,Pennsylvania,77914
905,Lowe-Pollich,3562 Summit Terrace,Dallas,Texas,30642
906,Pfeffer-Bogisich,97 Swallow Pass,Des Moines,Iowa,26237
907,"Hettinger, Kreiger and Jakubowski",89474 Cascade Lane,Charlotte,North Carolina,55054
908,Johnston Group,7 Grayhawk Trail,Dallas,Texas,68905
909,Schuster-Abbott,4 Stoughton Pass,Dallas,Texas,58236
910,Waters-Barton,5757 Stephen Crossing,Waterbury,Connecticut,68138
911,Kilback-Anderson,5 8th Parkway,Peoria,Illinois,84928
912,Turner LLC,6325 Nancy Junction,Knoxville,Tennessee,66705
913,"Carter, Kassulke and Pacocha",9129 Butternut Park,Norwalk,Connecticut,72523
914,Wuckert-Rice,38099 Del Sol Parkway,Orlando,Florida,49609
915,Bartoletti-Paucek,4 Towne Center,Buffalo,New York,49269
916,"Walsh, Will and Gaylord",010 Moose Circle,Charleston,West Virginia,74552
917,"Conroy, Collins and Rath",06455 Londonderry Parkway,Waco,Texas,75888
918,Zboncak-Jaskolski,46 Hauk Point,Pittsburgh,Pennsylvania,16002
919,Heller and Sons,8 Green Ridge Avenue,Akron,Ohio,70489
920,Jacobi and Sons,346 Dexter Terrace,Shreveport,Louisiana,65877
921,"Vandervort, Rice and Hagenes",4 Gateway Junction,Bronx,New York,13296
922,"Kovacek, Dietrich and Goldner",40 Meadow Vale Park,Mobile,Alabama,62001
923,"Gerlach, Homenick and Deckow",386 Red Cloud Way,Chicago,Illinois,33957
924,Skiles Group,610 Chive Court,Houston,Texas,38646
925,"Nienow, Jenkins and Hackett",289 Claremont Park,Tampa,Florida,12890
926,Senger Group,9 Dahle Way,Raleigh,North Carolina,92160
927,Nitzsche-Lindgren,57812 Monument Drive,Tampa,Florida,74965
928,"Wisozk, Purdy and Waelchi",15 Stang Terrace,Springfield,Illinois,12128
929,Bashirian-Reichel,493 Beilfuss Plaza,Pittsburgh,Pennsylvania,32482
930,Parisian-Leuschke,97688 Surrey Alley,Hollywood,Florida,79054
931,Kerluke-Rice,7927 Park Meadow Alley,Garland,Texas,64716
932,"McCullough, Schaefer and Kihn",27002 Forest Dale Pass,Columbia,South Carolina,30070
933,"Quitzon, Raynor and Bradtke",82924 Hanover Trail,Lynchburg,Virginia,84475
934,"Kunze, Weimann and Batz",265 Nova Center,Newark,New Jersey,35732
935,Wiegand Group,143 Namekagon Lane,San Luis Obispo,California,91557
936,"Mosciski, Sawayn and Kreiger",33 Dennis Lane,Kansas City,Missouri,18848
937,Schneider LLC,05099 Old Shore Point,Clearwater,Florida,58502
938,Abernathy-Halvorson,2 Hoepker Court,Denton,Texas,44723
939,"White, Kessler and Rippin",45667 Scofield Drive,Boston,Massachusetts,64218
940,Hamill LLC,2108 Ridge Oak Drive,Long Beach,California,62349
941,"Weissnat, Leannon and Corkery",26554 Granby Alley,Jersey City,New Jersey,71641
942,Abbott-Hermann,350 Florence Plaza,El Paso,Texas,12013
943,Hudson-Hermann,02639 Jenifer Alley,Saint Petersburg,Florida,38950
944,Wehner-DuBuque,32230 Montana Court,San Diego,California,36688
945,Gleichner-Cormier,74 Macpherson Center,Louisville,Kentucky,60138
946,Mills Inc,266 Washington Street,Charlotte,North Carolina,19424
947,"Runolfsdottir, Keeling and Cummings",66 Thompson Junction,Santa Monica,California,39206
948,Simonis Inc,906 Forest Avenue,Phoenix,Arizona,92390
949,Lowe and Sons,9250 Del Sol Circle,Huntington,West Virginia,71174
950,Rohan LLC,970 Trailsway Road,El Paso,Texas,51648
951,Cormier-Doyle,011 Goodland Court,Waco,Texas,17042
952,Lynch and Sons,354 Hallows Circle,Stockton,California,22468
953,Romaguera-Denesik,13 American Ash Pass,Denton,Texas,74229
954,Harris and Sons,6086 Eastwood Avenue,Washington,DC,30780
955,"Bartell, Hettinger and Kunde",3794 Springs Circle,New Orleans,Louisiana,60547
956,"Denesik, Hansen and Conroy",52 Ridgeway Park,Washington,DC,21974
957,"Wunsch, Herman and Gleason",83504 Maryland Road,Los Angeles,California,62702
958,Grady-O'Keefe,30 Bluestem Trail,Pensacola,Florida,58663
959,"Lockman, Sauer and Wolff",0310 Comanche Circle,Lincoln,Nebraska,85989
960,Fay Inc,665 Fallview Plaza,Evansville,Indiana,20687
961,Okuneva-Paucek,64315 Union Place,Homestead,Florida,76401
962,Bechtelar-McGlynn,49 Ludington Point,Columbia,South Carolina,45819
963,Kihn and Sons,04 Crescent Oaks Court,Houston,Texas,15583
964,Botsford-Considine,993 Susan Way,Dayton,Ohio,52400
965,Torphy Inc,61479 Cherokee Alley,Las Vegas,Nevada,58627
966,Stroman-Marquardt,3524 Meadow Valley Place,Saint Louis,Missouri,79532
967,Zieme-Klein,50547 Waxwing Alley,Corpus Christi,Texas,39836
968,Stark-Runolfsson,36705 Vidon Parkway,New York City,New York,70686
969,Welch Group,345 Anderson Way,Katy,Texas,55180
970,Little-Crooks,9 Valley Edge Circle,El Paso,Texas,70979
971,Dooley-Ziemann,20 Porter Park,Tallahassee,Florida,91875
972,Hyatt-Kassulke,1115 Crescent Oaks Point,Miami,Florida,32975
973,Zemlak Inc,87642 Warbler Street,Bloomington,Indiana,39138
974,"Rosenbaum, Murazik and Bosco",2541 Arrowood Junction,Jackson,Mississippi,33727
975,"Jenkins, Pacocha and Wisoky",26929 Cambridge Lane,New York City,New York,33417
976,Borer-Senger,5713 Iowa Parkway,Shreveport,Louisiana,99482
977,Will Group,5 Canary Drive,Kansas City,Missouri,73597
978,Champlin-Ward,899 Packers Place,Montgomery,Alabama,30610
979,Cartwright-Mann,7 Southridge Road,Toledo,Ohio,93469
980,"Christiansen, Kemmer and Powlowski",5 Hallows Center,Phoenix,Arizona,49936
981,Shields-Bruen,28 Hoepker Lane,Oceanside,California,17343
982,Blanda-Becker,1 American Court,Jamaica,New York,43822
983,Zboncak Group,07425 Melrose Crossing,Albany,New York,64067
984,Harvey-VonRueden,741 Hermina Parkway,Charlotte,North Carolina,38327
985,Bauch-Grimes,23 Monterey Circle,Fort Worth,Texas,72708
986,"Kshlerin, Yost and Balistreri",88177 Armistice Trail,El Paso,Texas,58476
987,"Marvin, Bashirian and Padberg",88 Bartillon Hill,Lubbock,Texas,15354
988,Mann LLC,81 Riverside Avenue,Manchester,New Hampshire,54252
989,Cummerata-Wuckert,6036 Logan Park,Chandler,Arizona,12074
990,"Jenkins, Zulauf and Gleichner",1 Mandrake Lane,Fresno,California,35439
991,Jenkins-Stamm,0177 Jenifer Place,Louisville,Kentucky,34772
992,Kerluke-Schaden,999 Bellgrove Junction,Salt Lake City,Utah,72923
993,Mante and Sons,03 Onsgard Hill,Mc Keesport,Pennsylvania,64060
994,Sawayn-MacGyver,477 Daystar Way,Houston,Texas,46760
995,"Bode, Bergstrom and Kemmer",50 La Follette Court,Pittsburgh,Pennsylvania,34118
996,Quitzon-Boehm,6 4th Hill,Houston,Texas,40396
997,Herzog-Terry,43 Ohio Place,Portland,Oregon,32405
998,"Feest, Ritchie and Mante",759 Sugar Junction,Charleston,South Carolina,32954
999,MacGyver-Schumm,7 High Crossing Pass,Albany,New York,41091
1000,"Goldner, Gerhold and Cruickshank",31908 Michigan Drive,New Haven,Connecticut,33276
